[ {
  "consttype" : "CAP",
  "award" : "65999000.00",
  "boro" : "K",
  "building_address" : "2360 BENSON AVENUE",
  "city" : "Brooklyn",
  "geo_dist" : "21",
  "projdesc" : "Addition",
  "name" : "P.S. 101 - BROOKLYN",
  "zip_code" : "11214",
  "buildingid" : "K101"
}
, {
  "consttype" : "CAP",
  "award" : "739309.00",
  "boro" : "K",
  "building_address" : "510 CONEY ISLAND AVE",
  "city" : "Brooklyn",
  "geo_dist" : "22",
  "projdesc" : "Demo",
  "name" : "P.S./I.S. 338 - BROOKLYN",
  "zip_code" : "11218",
  "buildingid" : "K338"
}
, {
  "consttype" : "CAP",
  "award" : "67683691.00",
  "boro" : "K",
  "building_address" : "510 CONEY ISLAND AVE",
  "city" : "Brooklyn",
  "geo_dist" : "22",
  "projdesc" : "New",
  "name" : "P.S./I.S. 338 - BROOKLYN",
  "zip_code" : "11218",
  "buildingid" : "K338"
}
, {
  "consttype" : "CAP",
  "award" : "27637000.00",
  "boro" : "K",
  "building_address" : "369 93RD STREET",
  "city" : "Brooklyn",
  "geo_dist" : "20",
  "projdesc" : "New",
  "name" : "PRE-K CENTER @ 369 93RD STREET - BROOKLYN",
  "zip_code" : "11209",
  "buildingid" : "K613"
}
, {
  "consttype" : "CAP",
  "award" : "8464400.00",
  "boro" : "K",
  "building_address" : "219 25TH STREET",
  "city" : "Brooklyn",
  "geo_dist" : "15",
  "projdesc" : "Lease",
  "name" : "PRE-K CENTER @ 219 25TH STREET - BROOKLYN",
  "zip_code" : "11232",
  "buildingid" : "K661"
}
, {
  "consttype" : "CAP",
  "award" : "6584000.00",
  "boro" : "K",
  "building_address" : "1223 CONEY ISLAND AVENUE",
  "city" : "Brooklyn",
  "geo_dist" : "21",
  "projdesc" : "Lease",
  "name" : "PRE-K CENTER @ 1223 CONEY ISLAND AVENUE - BROOKLYN",
  "zip_code" : "11230",
  "buildingid" : "K672"
}
, {
  "consttype" : "CAP",
  "award" : "0.00",
  "boro" : "K",
  "building_address" : "139 MENAHAN STREET",
  "city" : "Brooklyn",
  "geo_dist" : "84",
  "projdesc" : "Lease",
  "name" : "P.S. 677 - BROOKLYN",
  "zip_code" : "11221",
  "buildingid" : "K677"
}
, {
  "consttype" : "CAP",
  "award" : "3165000.00",
  "boro" : "K",
  "building_address" : "139 MENAHAN STREET",
  "city" : "Brooklyn",
  "geo_dist" : "84",
  "projdesc" : "Lease",
  "name" : "P.S. 677 - BROOKLYN",
  "zip_code" : "11221",
  "buildingid" : "K677"
}
, {
  "consttype" : "CAP",
  "award" : "24882000.00",
  "boro" : "K",
  "building_address" : "1423 62ND STREET",
  "city" : "Brooklyn",
  "geo_dist" : "20",
  "projdesc" : "Lease",
  "name" : "PRE-K CENTER @ 1423 62ND STREET - BROOKLYN",
  "zip_code" : "11219",
  "buildingid" : "K678"
}
, {
  "consttype" : "CAP",
  "award" : "0.00",
  "boro" : "K",
  "building_address" : "1355 84TH STREET",
  "city" : "Brooklyn",
  "geo_dist" : "20",
  "projdesc" : "Lease",
  "name" : "PRE-K CENTER @ 1355 84TH STREET - BROOKLYN",
  "zip_code" : "11228",
  "buildingid" : "K762"
}
, {
  "consttype" : "CAP",
  "award" : "0.00",
  "boro" : "K",
  "building_address" : "15 SNYDER AVENUE",
  "city" : "Brooklyn",
  "geo_dist" : "84",
  "projdesc" : "Lease",
  "name" : "P.S. 884 - BROOKLYN",
  "zip_code" : "11226",
  "buildingid" : "K884"
}
, {
  "consttype" : "CAP",
  "award" : "2162000.00",
  "boro" : "K",
  "building_address" : "15 SNYDER AVENUE",
  "city" : "Brooklyn",
  "geo_dist" : "84",
  "projdesc" : "Lease",
  "name" : "P.S. 884 - BROOKLYN",
  "zip_code" : "11226",
  "buildingid" : "K884"
}
, {
  "consttype" : "CAP",
  "award" : "98820000.00",
  "boro" : "M",
  "building_address" : "75 MORTON STREET",
  "city" : "Manhattan",
  "geo_dist" : "2",
  "projdesc" : "New",
  "name" : "I.S. 323 - MANHATTAN",
  "zip_code" : "10014",
  "buildingid" : "M323"
}
, {
  "consttype" : "CAP",
  "award" : "74425721.00",
  "boro" : "M",
  "building_address" : "21 WEST END AVENUE",
  "city" : "Manhattan",
  "geo_dist" : "3",
  "projdesc" : "New",
  "name" : "P.S. 342 (RIVERSIDE CENTER) - MANHATTAN",
  "zip_code" : "10023",
  "buildingid" : "M342"
}
, {
  "consttype" : "CAP",
  "award" : "5144096.00",
  "boro" : "M",
  "building_address" : "2 LAFAYETTE STREET",
  "city" : "Manhattan",
  "geo_dist" : "2",
  "projdesc" : "Interior",
  "name" : "PRE-K CENTER @ 2 LAFAYETTE STREET - MANHATTAN",
  "zip_code" : "10007",
  "buildingid" : "M453"
}
, {
  "consttype" : "CAP",
  "award" : "0.00",
  "boro" : "M",
  "building_address" : "227 WEST 27TH STREET",
  "city" : "Manhattan",
  "geo_dist" : "2",
  "buildingid" : "M777"
}
, {
  "consttype" : "CAP",
  "award" : "387600.00",
  "boro" : "M",
  "building_address" : "227-243 WEST 61 STREET",
  "city" : "Manhattan",
  "geo_dist" : "78",
  "projdesc" : "Lease",
  "name" : "ISHS @ M837",
  "zip_code" : "10023",
  "buildingid" : "M837"
}
, {
  "consttype" : "CAP",
  "award" : "13694000.00",
  "boro" : "M",
  "building_address" : "227-243 WEST 61 STREET",
  "city" : "Manhattan",
  "geo_dist" : "78",
  "projdesc" : "Lease",
  "name" : "ISHS @ M837",
  "zip_code" : "10023",
  "buildingid" : "M837"
}
, {
  "consttype" : "CAP",
  "award" : "65987000.00",
  "boro" : "Q",
  "building_address" : "108-55 69TH AVENUE",
  "city" : "Queens",
  "geo_dist" : "28",
  "projdesc" : "Addition",
  "name" : "P.S. 303 - QUEENS",
  "zip_code" : "11375",
  "buildingid" : "Q003"
}
, {
  "consttype" : "CAP",
  "award" : "5183000.00",
  "boro" : "Q",
  "building_address" : "108-55 69TH AVENUE",
  "city" : "Queens",
  "geo_dist" : "28",
  "projdesc" : "Demo",
  "name" : "P.S. 303 - QUEENS",
  "zip_code" : "11375",
  "buildingid" : "Q003"
}
, {
  "consttype" : "CAP",
  "award" : "91875000.00",
  "boro" : "Q",
  "building_address" : "54-25 SKILLMAN AVENUE",
  "city" : "Queens",
  "geo_dist" : "30",
  "projdesc" : "Addition",
  "name" : "P.S. 11 - QUEENS",
  "zip_code" : "11377",
  "buildingid" : "Q011"
}
, {
  "consttype" : "CAP",
  "award" : "95491911.00",
  "boro" : "Q",
  "building_address" : "98-02 ROOSEVELT AVENUE",
  "city" : "Queens",
  "geo_dist" : "24",
  "projdesc" : "Addition",
  "name" : "P.S. 19 - QUEENS",
  "zip_code" : "11368",
  "buildingid" : "Q019"
}
, {
  "consttype" : "CAP",
  "award" : "82451000.00",
  "boro" : "Q",
  "building_address" : "141-11 HOLLY AVENUE",
  "city" : "Queens",
  "geo_dist" : "25",
  "projdesc" : "Addition",
  "name" : "P.S. 24 - QUEENS",
  "zip_code" : "11355",
  "buildingid" : "Q024"
}
, {
  "consttype" : "CAP",
  "award" : "2717000.00",
  "boro" : "Q",
  "building_address" : "141-11 HOLLY AVENUE",
  "city" : "Queens",
  "geo_dist" : "25",
  "projdesc" : "Demo",
  "name" : "P.S. 24 - QUEENS",
  "zip_code" : "11355",
  "buildingid" : "Q024"
}
, {
  "consttype" : "CAP",
  "award" : "42808000.00",
  "boro" : "Q",
  "building_address" : "191-02 90TH AVENUE",
  "city" : "Queens",
  "geo_dist" : "29",
  "projdesc" : "Addition",
  "name" : "P.S. 35 - QUEENS",
  "zip_code" : "11423",
  "buildingid" : "Q035"
}
, {
  "consttype" : "CAP",
  "award" : "31534000.00",
  "boro" : "Q",
  "building_address" : "63-60 80TH STREET",
  "city" : "Queens",
  "geo_dist" : "24",
  "projdesc" : "Addition",
  "name" : "P.S. 49 - QUEENS",
  "zip_code" : "11379",
  "buildingid" : "Q049"
}
, {
  "consttype" : "CAP",
  "award" : "55182000.00",
  "boro" : "Q",
  "building_address" : "143-26 101 AVENUE",
  "city" : "Queens",
  "geo_dist" : "28",
  "projdesc" : "Addition",
  "name" : "P.S. 50 - QUEENS",
  "zip_code" : "11435",
  "buildingid" : "Q050"
}
, {
  "consttype" : "CAP",
  "award" : "83800000.00",
  "boro" : "Q",
  "building_address" : "46-02 47 AVENUE",
  "city" : "Queens",
  "geo_dist" : "24",
  "projdesc" : "Addition",
  "name" : "I.S. 125 - QUEENS",
  "zip_code" : "11377",
  "buildingid" : "Q125"
}
, {
  "consttype" : "CAP",
  "award" : "2688000.00",
  "boro" : "Q",
  "building_address" : "34-74 113 STREET",
  "city" : "Queens",
  "geo_dist" : "24",
  "projdesc" : "Demo",
  "name" : "P.S. 143 - QUEENS",
  "zip_code" : "11368",
  "buildingid" : "Q143"
}
, {
  "consttype" : "CAP",
  "award" : "43834000.00",
  "boro" : "Q",
  "building_address" : "159-01 59 AVENUE",
  "city" : "Queens",
  "geo_dist" : "25",
  "projdesc" : "Addition",
  "name" : "P.S. 163 - QUEENS",
  "zip_code" : "11365",
  "buildingid" : "Q163"
}
, {
  "consttype" : "CAP",
  "award" : "50247000.00",
  "boro" : "Q",
  "building_address" : "120-45 235 STREET",
  "city" : "Queens",
  "geo_dist" : "29",
  "projdesc" : "Addition",
  "name" : "P.S. 176 - QUEENS",
  "zip_code" : "11411",
  "buildingid" : "Q176"
}
, {
  "consttype" : "CAP",
  "award" : "42410002.00",
  "boro" : "Q",
  "building_address" : "99-01 34TH AVENUE",
  "city" : "Queens",
  "geo_dist" : "30",
  "projdesc" : "Addition",
  "name" : "P.S. 92 - QUEENS",
  "zip_code" : "11368",
  "buildingid" : "Q292"
}
, {
  "consttype" : "CAP",
  "award" : "76850000.00",
  "boro" : "Q",
  "building_address" : "50-51 98TH STREET",
  "city" : "Queens",
  "geo_dist" : "24",
  "projdesc" : "New",
  "name" : "P.S. 298 - QUEENS",
  "zip_code" : "11368",
  "buildingid" : "Q298"
}
, {
  "consttype" : "CAP",
  "award" : "2458500.00",
  "boro" : "Q",
  "building_address" : "70-24 47TH AVENUE",
  "city" : "Queens",
  "geo_dist" : "24",
  "projdesc" : "Lease",
  "name" : "PRE-K CENTER @ 70-24 47TH AVENUE - QUEENS",
  "zip_code" : "11377",
  "buildingid" : "Q321"
}
, {
  "consttype" : "CAP",
  "award" : "66643000.00",
  "boro" : "Q",
  "building_address" : "210-07 48TH AVENUE",
  "city" : "Queens",
  "geo_dist" : "26",
  "projdesc" : "New",
  "name" : "P.S. 332 - QUEENS",
  "zip_code" : "11364",
  "buildingid" : "Q332"
}
, {
  "consttype" : "CAP",
  "award" : "70885000.00",
  "boro" : "Q",
  "building_address" : "150-15 RALEIGH STREET",
  "city" : "Queens",
  "geo_dist" : "27",
  "projdesc" : "New",
  "name" : "P.S. 335 - QUEENS",
  "zip_code" : "11418",
  "buildingid" : "Q335"
}
, {
  "consttype" : "CAP",
  "award" : "19987000.00",
  "boro" : "Q",
  "building_address" : "124-06 14TH AVENUE",
  "city" : "Queens",
  "geo_dist" : "78",
  "projdesc" : "Lease",
  "name" : "IS/HS 336 - QUEENS",
  "zip_code" : "11356",
  "buildingid" : "Q336"
}
, {
  "consttype" : "CAP",
  "award" : "6813171.00",
  "boro" : "Q",
  "building_address" : "32-52 37TH STREET",
  "city" : "Queens",
  "geo_dist" : "30",
  "projdesc" : "Lease",
  "name" : "PRE-K CENTER @ 32-52 37TH STREET - QUEENS",
  "zip_code" : "11103",
  "buildingid" : "Q397"
}
, {
  "consttype" : "CAP",
  "award" : "1708504.00",
  "boro" : "Q",
  "building_address" : "69-01 34TH AVENUE",
  "city" : "Queens",
  "geo_dist" : "30",
  "projdesc" : "Demo",
  "name" : "P.S. 398 - QUEENS",
  "zip_code" : "11377",
  "buildingid" : "Q398"
}
, {
  "consttype" : "CAP",
  "award" : "8248692.00",
  "boro" : "Q",
  "building_address" : "27-35 JACKSON AVENUE",
  "city" : "Queens",
  "geo_dist" : "30",
  "projdesc" : "Lease",
  "name" : "PRE-K CENTER @ JACKSON AVENUE - QUEENS",
  "zip_code" : "11101",
  "buildingid" : "Q972"
}
, {
  "consttype" : "CAP",
  "award" : "9271638.00",
  "boro" : "R",
  "building_address" : "104 GORDON STREET",
  "city" : "Staten Is",
  "geo_dist" : "31",
  "projdesc" : "Lease",
  "name" : "P.S. 82 - STATEN ISLAND",
  "zip_code" : "10304",
  "buildingid" : "R082"
}
, {
  "consttype" : "CAP",
  "award" : "69360558.00",
  "boro" : "R",
  "building_address" : "105B HAMILTON AVENUE",
  "city" : "Staten Is",
  "geo_dist" : "78",
  "projdesc" : "Addition",
  "name" : "CURTIS HIGH SCHOOL ANNEX - STATEN ISLAND",
  "zip_code" : "10301",
  "buildingid" : "R453"
}
, {
  "consttype" : "CAP",
  "award" : "24981900.00",
  "boro" : "R",
  "building_address" : "1220 MANOR ROAD",
  "city" : "Staten Is",
  "geo_dist" : "78",
  "projdesc" : "Addition",
  "name" : "SUSAN E. WAGNER HS ANNEX - STATEN ISLAND",
  "zip_code" : "10314",
  "buildingid" : "R462"
}
, {
  "consttype" : "CAP",
  "award" : "50850000.00",
  "boro" : "X",
  "building_address" : "3041 BRUCKNER BLVD",
  "city" : "Bronx",
  "geo_dist" : "8",
  "projdesc" : "Addition",
  "name" : "P.S. 14 - BRONX",
  "zip_code" : "10461",
  "buildingid" : "X014"
}
, {
  "consttype" : "CAP",
  "award" : "84478000.00",
  "boro" : "X",
  "building_address" : "279 EAST 196 STREET",
  "city" : "Bronx",
  "geo_dist" : "10",
  "projdesc" : "Addition",
  "name" : "P.S. 46 - BRONX",
  "zip_code" : "10458",
  "buildingid" : "X046"
}
, {
  "consttype" : "CAP",
  "award" : "2775000.00",
  "boro" : "X",
  "building_address" : "279 EAST 196 STREET",
  "city" : "Bronx",
  "geo_dist" : "10",
  "projdesc" : "Demo",
  "name" : "P.S. 46 - BRONX",
  "zip_code" : "10458",
  "buildingid" : "X046"
}
, {
  "consttype" : "CAP",
  "award" : "49723000.00",
  "boro" : "X",
  "building_address" : "341 EAST 207 STREET",
  "city" : "Bronx",
  "geo_dist" : "10",
  "projdesc" : "Addition",
  "name" : "P.S. 56 - BRONX",
  "zip_code" : "10467",
  "buildingid" : "X056"
}
, {
  "consttype" : "CAP",
  "award" : "49393937.00",
  "boro" : "X",
  "building_address" : "1028 WHITE PLAINS ROAD",
  "city" : "Bronx",
  "geo_dist" : "8",
  "projdesc" : "New",
  "name" : "P.S. 317 - BRONX",
  "zip_code" : "10472",
  "buildingid" : "X317"
}
, {
  "consttype" : "CAP",
  "award" : "11645000.00",
  "boro" : "X",
  "building_address" : "2490-2500 WEBSTER AVE",
  "city" : "Bronx",
  "geo_dist" : "10",
  "projdesc" : "Lease",
  "name" : "PRE-K CENTER 2 @ 2490-2500 WEBSTER AVENUE - BRONX",
  "zip_code" : "10458",
  "buildingid" : "X432"
}
, {
  "consttype" : "CAP",
  "award" : "9167000.00",
  "boro" : "X",
  "building_address" : "2510 MARION AVENUE",
  "city" : "Bronx",
  "geo_dist" : "10",
  "projdesc" : "Lease",
  "name" : "PRE-K CENTER @ 2510 MARION AVENUE - BRONX",
  "zip_code" : "10458",
  "buildingid" : "X444"
}
, {
  "consttype" : "CAP",
  "award" : "14400000.00",
  "boro" : "X",
  "building_address" : "2865 CLAFLIN AVENUE",
  "city" : "Bronx",
  "geo_dist" : "10",
  "projdesc" : "Lease",
  "name" : "P.S. 315 - BRONX",
  "zip_code" : "10468",
  "buildingid" : "X779"
}
, {
  "consttype" : "CIP",
  "award" : "5811800.00",
  "boro" : "K",
  "building_address" : "50 JEFFERSON AVENUE",
  "city" : "Brooklyn",
  "geo_dist" : "13",
  "projdesc" : "PLANYC BOILER CNVRSN/PLANYC CLIMATE CTRL",
  "name" : "P.S. 3 - BROOKLYN",
  "zip_code" : "11216",
  "buildingid" : "K003"
}
, {
  "consttype" : "CIP",
  "award" : "8218900.00",
  "boro" : "K",
  "building_address" : "2424 BATCHELDER STREET",
  "city" : "Brooklyn",
  "geo_dist" : "22",
  "projdesc" : "WATER PENETRATION/PLANYC BOILER/PLANYC CLIMATE",
  "name" : "I.S. 14 - BROOKLYN",
  "zip_code" : "11235",
  "buildingid" : "K014"
}
, {
  "consttype" : "CIP",
  "award" : "550000.00",
  "boro" : "K",
  "building_address" : "71 SULLIVAN STREET",
  "city" : "Brooklyn",
  "geo_dist" : "15",
  "projdesc" : "SANDY - INSTALL TEMPORARY BOILERS",
  "name" : "P.S. 15 - BROOKLYN",
  "zip_code" : "11231",
  "buildingid" : "K015"
}
, {
  "consttype" : "CIP",
  "award" : "345025.00",
  "boro" : "K",
  "building_address" : "325 SOUTH 3RD STREET",
  "city" : "Brooklyn",
  "geo_dist" : "14",
  "projdesc" : "FY16 RESO A PLAYGROUND REDVELOPMENT",
  "name" : "P.S. 19 - BROOKLYN",
  "zip_code" : "11211",
  "buildingid" : "K019"
}
, {
  "consttype" : "CIP",
  "award" : "6297397.00",
  "boro" : "K",
  "building_address" : "787 LAFAYETTE AVENUE",
  "city" : "Brooklyn",
  "geo_dist" : "16",
  "projdesc" : "ROOFS/PARAPETS/EXT MASONRY/EXT DOORS",
  "name" : "P.S. 25 - BROOKLYN",
  "zip_code" : "11221",
  "buildingid" : "K025"
}
, {
  "consttype" : "CIP",
  "award" : "6750000.00",
  "boro" : "K",
  "building_address" : "1014 LAFAYETTE AVENUE",
  "city" : "Brooklyn",
  "geo_dist" : "16",
  "projdesc" : "FULL PROGRAM ACCESSIBILITY/LOW VOLTAGE ELECTRICAL",
  "name" : "I.S. 393 - BROOKLYN",
  "zip_code" : "11221",
  "buildingid" : "K026"
}
, {
  "consttype" : "CIP",
  "award" : "799345.00",
  "boro" : "K",
  "building_address" : "1014 LAFAYETTE AVENUE",
  "city" : "Brooklyn",
  "geo_dist" : "16",
  "projdesc" : "FY13 RESO A PLAYGROUND REDEVELOPMENT",
  "name" : "P.S. 26 - BROOKLYN",
  "zip_code" : "11221",
  "buildingid" : "K026"
}
, {
  "consttype" : "CIP",
  "award" : "3879237.00",
  "boro" : "K",
  "building_address" : "75 MESEROLE AVENUE",
  "city" : "Brooklyn",
  "geo_dist" : "14",
  "projdesc" : "EXTERIOR MASONRY/PARAPETS",
  "name" : "P.S. 31 - BROOKLYN",
  "zip_code" : "11222",
  "buildingid" : "K031"
}
, {
  "consttype" : "CIP",
  "award" : "1348916.00",
  "boro" : "K",
  "building_address" : "70 TOMPKINS AVENUE",
  "city" : "Brooklyn",
  "geo_dist" : "14",
  "projdesc" : "KITCHEN FLOORING/FLOOD/ANSUL SYSTEM",
  "name" : "I.S. 330 - BROOKLYN",
  "zip_code" : "11206",
  "buildingid" : "K033"
}
, {
  "consttype" : "CIP",
  "award" : "4448000.00",
  "boro" : "K",
  "building_address" : "131 NORMAN AVENUE",
  "city" : "Brooklyn",
  "geo_dist" : "14",
  "projdesc" : "PLANYC BOILER CNVRSN/PLANYC CLIMATE CTRL",
  "name" : "P.S. 34 - BROOKLYN",
  "zip_code" : "11222",
  "buildingid" : "K034"
}
, {
  "consttype" : "CIP",
  "award" : "5862800.00",
  "boro" : "K",
  "building_address" : "432 MONROE STREET",
  "city" : "Brooklyn",
  "geo_dist" : "13",
  "projdesc" : "PLANYC BOILER/PLANYC CLIMATE CTRL/FIRE ALARM",
  "name" : "P.S. 44 - BROOKLYN",
  "zip_code" : "11221",
  "buildingid" : "K044"
}
, {
  "consttype" : "CIP",
  "award" : "689600.00",
  "boro" : "K",
  "building_address" : "100 CLERMONT AVENUE",
  "city" : "Brooklyn",
  "geo_dist" : "13",
  "projdesc" : "AUDITORIUM UPGRADE",
  "name" : "P.S. 46 - BROOKLYN",
  "zip_code" : "11205",
  "buildingid" : "K046"
}
, {
  "consttype" : "CIP",
  "award" : "8853000.00",
  "boro" : "K",
  "building_address" : "223 GRAHAM AVENUE",
  "city" : "Brooklyn",
  "geo_dist" : "14",
  "projdesc" : "PARAPETS/FLOOD ELIMINATION/ROOFS/MASONRY/GYM UPG",
  "name" : "LYONS COMMUNITY SCHOOL - K",
  "zip_code" : "11206",
  "buildingid" : "K049"
}
, {
  "consttype" : "CIP",
  "award" : "590000.00",
  "boro" : "K",
  "building_address" : "125 STUYVESANT AVENUE",
  "city" : "Brooklyn",
  "geo_dist" : "16",
  "projdesc" : "PUBLIC ADDRESS SYSTEM REPLACEMENT",
  "name" : "J.H.S. 57 - BROOKLYN",
  "zip_code" : "11221",
  "buildingid" : "K057"
}
, {
  "consttype" : "CIP",
  "award" : "10789000.00",
  "boro" : "K",
  "building_address" : "251 MACDOUGAL STREET",
  "city" : "Brooklyn",
  "geo_dist" : "23",
  "projdesc" : "EXT MASONRY/FLOOD ELIMINATION/PARAPETS/ROOFS",
  "name" : "P.S. 73 - BROOKLYN",
  "zip_code" : "11233",
  "buildingid" : "K073"
}
, {
  "consttype" : "CIP",
  "award" : "706260.00",
  "boro" : "K",
  "building_address" : "510 CLERMONT AVENUE",
  "city" : "Brooklyn",
  "geo_dist" : "13",
  "projdesc" : "LOW VOLTAGE ELEC SYSTEM/ANSUL SYSTEM",
  "name" : "K753 SPED - BROOKLYN",
  "zip_code" : "11238",
  "buildingid" : "K085"
}
, {
  "consttype" : "CIP",
  "award" : "5896000.00",
  "boro" : "K",
  "building_address" : "544 7TH AVENUE",
  "city" : "Brooklyn",
  "geo_dist" : "15",
  "projdesc" : "PLAYNYC BOILER CONVERSION/CLIMATE CONTROL",
  "name" : "I.S. 88 - BROOKLYN",
  "zip_code" : "11215",
  "buildingid" : "K088"
}
, {
  "consttype" : "CIP",
  "award" : "4743000.00",
  "boro" : "K",
  "building_address" : "345 VAN SICKLEN STREET",
  "city" : "Brooklyn",
  "geo_dist" : "21",
  "projdesc" : "PARAPET/ROOFS/EXT MASONRY",
  "name" : "P.S. 95 - BROOKLYN",
  "zip_code" : "11223",
  "buildingid" : "K095"
}
, {
  "consttype" : "CIP",
  "award" : "10521000.00",
  "boro" : "K",
  "building_address" : "9115 5TH AVENUE",
  "city" : "Brooklyn",
  "geo_dist" : "20",
  "projdesc" : "WATER INFILTRATION/FLOOD/PARAPETS/ROOFS",
  "name" : "P.S. 104 - BROOKLYN",
  "zip_code" : "11209",
  "buildingid" : "K104"
}
, {
  "consttype" : "CIP",
  "award" : "375000.00",
  "boro" : "K",
  "building_address" : "1328 PUTNAM AVENUE",
  "city" : "Brooklyn",
  "geo_dist" : "32",
  "projdesc" : "FY 15 RESO A ROOM CONVERSION",
  "name" : "P.S. 106 - BROOKLYN",
  "zip_code" : "11221",
  "buildingid" : "K106"
}
, {
  "consttype" : "CIP",
  "award" : "2039000.00",
  "boro" : "K",
  "building_address" : "35 STARR STREET",
  "city" : "Brooklyn",
  "geo_dist" : "32",
  "projdesc" : "SCIENCE LAB UPGRADES",
  "name" : "I.S. 349 - BROOKLYN",
  "zip_code" : "11221",
  "buildingid" : "K111"
}
, {
  "consttype" : "CIP",
  "award" : "2188000.00",
  "boro" : "K",
  "building_address" : "1077 REMSEN AVENUE",
  "city" : "Brooklyn",
  "geo_dist" : "18",
  "projdesc" : "EXTERIOR MASONRY",
  "name" : "P.S. 114 - BROOKLYN",
  "zip_code" : "11236",
  "buildingid" : "K114"
}
, {
  "consttype" : "CIP",
  "award" : "10535000.00",
  "boro" : "K",
  "building_address" : "300 WILLOUGHBY AVENUE",
  "city" : "Brooklyn",
  "geo_dist" : "13",
  "projdesc" : "EXTERIOR MASONRY/PARAPETS/ROOFS",
  "name" : "BROOKLYN COMM. HS OF COMMUNICA",
  "zip_code" : "11205",
  "buildingid" : "K117"
}
, {
  "consttype" : "CIP",
  "award" : "5447000.00",
  "boro" : "K",
  "building_address" : "3829 AVENUE K",
  "city" : "Brooklyn",
  "geo_dist" : "22",
  "projdesc" : "PLANYC BOILER CNVRSN/PLANYC CLIMATE CTRL",
  "name" : "P.S. 119 - BROOKLYN",
  "zip_code" : "11210",
  "buildingid" : "K119"
}
, {
  "consttype" : "CIP",
  "award" : "12025000.00",
  "boro" : "K",
  "building_address" : "70 OCEAN PARKWAY",
  "city" : "Brooklyn",
  "geo_dist" : "15",
  "projdesc" : "WATER PENETRATION THROUGH EXTERIOR/PARAPETS/ROOFS",
  "name" : "P.S. 130 - BROOKLYN",
  "zip_code" : "11218",
  "buildingid" : "K130"
}
, {
  "consttype" : "CIP",
  "award" : "1971000.00",
  "boro" : "K",
  "building_address" : "4004 4TH AVENUE",
  "city" : "Brooklyn",
  "geo_dist" : "15",
  "projdesc" : "RPZ VALVES/LOW VOLTAGE ELEC SYSTEM",
  "name" : "I.S. 136 - BROOKLYN",
  "zip_code" : "11232",
  "buildingid" : "K136"
}
, {
  "consttype" : "CIP",
  "award" : "245842.00",
  "boro" : "K",
  "building_address" : "4004 4TH AVENUE",
  "city" : "Brooklyn",
  "geo_dist" : "15",
  "projdesc" : "FY16 RESO A GYMNASIUM UPGRADE",
  "name" : "I.S. 821 - BROOKLYN",
  "zip_code" : "11232",
  "buildingid" : "K136"
}
, {
  "consttype" : "CIP",
  "award" : "1696100.00",
  "boro" : "K",
  "building_address" : "760 PROSPECT PLACE",
  "city" : "Brooklyn",
  "geo_dist" : "17",
  "projdesc" : "LIGHTING REPLACEMENT (DCAS)",
  "name" : "P.S. 138 - BROOKLYN",
  "zip_code" : "11216",
  "buildingid" : "K138"
}
, {
  "consttype" : "CIP",
  "award" : "1198890.00",
  "boro" : "K",
  "building_address" : "725 EAST 23 STREET",
  "city" : "Brooklyn",
  "geo_dist" : "22",
  "projdesc" : "TCU REMOVAL & PLAYGROUND REDEVELOPMENT",
  "name" : "P.S. 152 - BROOKLYN",
  "zip_code" : "11210",
  "buildingid" : "K152"
}
, {
  "consttype" : "CIP",
  "award" : "5700400.00",
  "boro" : "K",
  "building_address" : "5105 FORT HAMILTON PARKWAY",
  "city" : "Brooklyn",
  "geo_dist" : "20",
  "projdesc" : "EXTERIOR MASONRY/FLOOD ELMNTN/PARAPETS",
  "name" : "P.S. 160 - BROOKLYN",
  "zip_code" : "11219",
  "buildingid" : "K160"
}
, {
  "consttype" : "CIP",
  "award" : "160460.00",
  "boro" : "K",
  "building_address" : "202 AVENUE C",
  "city" : "Brooklyn",
  "geo_dist" : "20",
  "projdesc" : "FY16 RESO A AUDITORIUM UPGRADE",
  "name" : "P.S. 179 - BROOKLYN",
  "zip_code" : "11218",
  "buildingid" : "K179"
}
, {
  "consttype" : "CIP",
  "award" : "13757000.00",
  "boro" : "K",
  "building_address" : "3314 NEPTUNE AVENUE",
  "city" : "Brooklyn",
  "geo_dist" : "21",
  "projdesc" : "SANDY:INT/HEATING/ELEC/FLOOD/CLIMATE/VENT/FA",
  "name" : "P.S. 188 - BROOKLYN",
  "zip_code" : "11224",
  "buildingid" : "K188"
}
, {
  "consttype" : "CIP",
  "award" : "5387000.00",
  "boro" : "K",
  "building_address" : "4715 18 AVENUE",
  "city" : "Brooklyn",
  "geo_dist" : "20",
  "projdesc" : "DETERIORATED WINDOW WELL WALLS/FLOOD/PARAPETS/ROOF",
  "name" : "P.S. 192 - BROOKLYN",
  "zip_code" : "11204",
  "buildingid" : "K192"
}
, {
  "consttype" : "CIP",
  "award" : "1298835.00",
  "boro" : "K",
  "building_address" : "2515 AVENUE L",
  "city" : "Brooklyn",
  "geo_dist" : "22",
  "projdesc" : "TCU REMOVAL & PLAYGROUND REDEVELOPMENT",
  "name" : "P.S. 193 - BROOKLYN",
  "zip_code" : "11210",
  "buildingid" : "K193"
}
, {
  "consttype" : "CIP",
  "award" : "4389000.00",
  "boro" : "K",
  "building_address" : "3117 AVENUE W",
  "city" : "Brooklyn",
  "geo_dist" : "22",
  "projdesc" : "MASONRY/WINDOWS/ROOFS/PARAPETS",
  "name" : "P.S. 194 - BROOKLYN",
  "zip_code" : "11229",
  "buildingid" : "K194"
}
, {
  "consttype" : "CIP",
  "award" : "849500.00",
  "boro" : "K",
  "building_address" : "131 IRWIN STREET",
  "city" : "Brooklyn",
  "geo_dist" : "22",
  "projdesc" : "SANDY- TEMP BOILER",
  "name" : "P.S. 195 - BROOKLYN",
  "zip_code" : "11235",
  "buildingid" : "K195"
}
, {
  "consttype" : "CIP",
  "award" : "131000.00",
  "boro" : "K",
  "building_address" : "207 BUSHWICK AVENUE",
  "city" : "Brooklyn",
  "geo_dist" : "14",
  "projdesc" : "FY16 RESO A LIBRARY UPGRADE",
  "name" : "P.S. 196 - BROOKLYN",
  "zip_code" : "11206",
  "buildingid" : "K196"
}
, {
  "consttype" : "CIP",
  "award" : "1230964.98",
  "boro" : "K",
  "building_address" : "4105 FARRAGUT ROAD",
  "city" : "Brooklyn",
  "geo_dist" : "22",
  "projdesc" : "PLAYGROUND REDEVELOPMENT AND TCU",
  "name" : "P.S. 198 - BROOKLYN",
  "zip_code" : "11210",
  "buildingid" : "K198"
}
, {
  "consttype" : "CIP",
  "award" : "20782700.00",
  "boro" : "K",
  "building_address" : "8010 12 AVENUE",
  "city" : "Brooklyn",
  "geo_dist" : "20",
  "projdesc" : "PARAPETS/EXT MASONRY/CONCRETE/FLOOD/ROOF",
  "name" : "I.S. 201 - BROOKLYN",
  "zip_code" : "11228",
  "buildingid" : "K201"
}
, {
  "consttype" : "CIP",
  "award" : "2117000.00",
  "boro" : "K",
  "building_address" : "4801 AVENUE D",
  "city" : "Brooklyn",
  "geo_dist" : "18",
  "projdesc" : "CRACKED MASONRY, DETERIORATED MORTAR/FLOOD/WINDOWS",
  "name" : "P.S. 208 - BROOKLYN",
  "zip_code" : "11203",
  "buildingid" : "K208"
}
, {
  "consttype" : "CIP",
  "award" : "10968000.00",
  "boro" : "K",
  "building_address" : "1001 EAST 100 STREET",
  "city" : "Brooklyn",
  "geo_dist" : "18",
  "projdesc" : "INTERIOR SPACES/HEATING PLT/ELEC/CLIMATE/FLOOD EL",
  "name" : "I.S. 211 - BROOKLYN",
  "zip_code" : "11236",
  "buildingid" : "K211"
}
, {
  "consttype" : "CIP",
  "award" : "8677000.00",
  "boro" : "K",
  "building_address" : "1075 OCEAN VIEW AVENUE",
  "city" : "Brooklyn",
  "geo_dist" : "21",
  "projdesc" : "FLOOD ELMNTN/ROOFS/EXTERIOR MASONRY/PARAPETS",
  "name" : "P.S. 225 - BROOKLYN",
  "zip_code" : "11235",
  "buildingid" : "K225"
}
, {
  "consttype" : "CIP",
  "award" : "2000000.00",
  "boro" : "K",
  "building_address" : "525 LENOX ROAD",
  "city" : "Brooklyn",
  "geo_dist" : "18",
  "projdesc" : "PLAYGROUND REDEVELOPMENT & TCU",
  "name" : "P.S. 235 - BROOKLYN",
  "zip_code" : "11203",
  "buildingid" : "K235"
}
, {
  "consttype" : "CIP",
  "award" : "19640000.00",
  "boro" : "K",
  "building_address" : "2401 NEPTUNE AVENUE",
  "city" : "Brooklyn",
  "geo_dist" : "21",
  "projdesc" : "SANDY:INTERIOR/CONCRETE/HEAT/ELEC/FLOOD/FA",
  "name" : "I.S. 239 - BROOKLYN",
  "zip_code" : "11224",
  "buildingid" : "K239"
}
, {
  "consttype" : "CIP",
  "award" : "890000.00",
  "boro" : "K",
  "building_address" : "10001 FLATLANDS AVENUE",
  "city" : "Brooklyn",
  "geo_dist" : "18",
  "projdesc" : "STRUCTURAL DEFECTS",
  "name" : "P.S. 235 - BROOKLYN",
  "zip_code" : "11236",
  "buildingid" : "K242"
}
, {
  "consttype" : "CIP",
  "award" : "10147000.00",
  "boro" : "K",
  "building_address" : "5404 TILDEN AVENUE",
  "city" : "Brooklyn",
  "geo_dist" : "18",
  "projdesc" : "MORTAR JOINTS DETERIOR /FLOOD/PARAPETS/ROOF/WINDOW",
  "name" : "P.S. 244 - BROOKLYN",
  "zip_code" : "11203",
  "buildingid" : "K244"
}
, {
  "consttype" : "CIP",
  "award" : "184300.00",
  "boro" : "K",
  "building_address" : "1037 EAST 54 STREET",
  "city" : "Brooklyn",
  "geo_dist" : "22",
  "projdesc" : "FY16 RESO A AUDITORIUM UPGRAD",
  "name" : "P.S. 251 - BROOKLYN",
  "zip_code" : "11234",
  "buildingid" : "K251"
}
, {
  "consttype" : "CIP",
  "award" : "174000.00",
  "boro" : "K",
  "building_address" : "1084 LENOX ROAD",
  "city" : "Brooklyn",
  "geo_dist" : "18",
  "projdesc" : "FY16 RESO A ROOM CONVERSIONS/PARTITIONING",
  "name" : "MIDDLE SCHOOL FOR ART & PHILOS",
  "zip_code" : "11212",
  "buildingid" : "K252"
}
, {
  "consttype" : "CIP",
  "award" : "7375000.00",
  "boro" : "K",
  "building_address" : "1084 LENOX ROAD",
  "city" : "Brooklyn",
  "geo_dist" : "18",
  "projdesc" : "PLANYC BOILER CONVERSION/CLIMATE CONTROL",
  "name" : "MIDDLE SCHOOL FOR ART & PHILOS",
  "zip_code" : "11212",
  "buildingid" : "K252"
}
, {
  "consttype" : "CIP",
  "award" : "4620000.00",
  "boro" : "K",
  "building_address" : "1801 AVENUE Y",
  "city" : "Brooklyn",
  "geo_dist" : "22",
  "projdesc" : "SANDY - HEATING/ELEC SYS/FLOOD ELIM/CLIMATE CONTRL",
  "name" : "P.S. 254 - BROOKLYN",
  "zip_code" : "11235",
  "buildingid" : "K254"
}
, {
  "consttype" : "CIP",
  "award" : "10786000.00",
  "boro" : "K",
  "building_address" : "7305 FT HAMILTON PKWY",
  "city" : "Brooklyn",
  "geo_dist" : "20",
  "projdesc" : "CRACKED EXTERIOR MASONRY/ROOFS/PARAPETS",
  "name" : "I.S. 259 - BROOKLYN",
  "zip_code" : "11228",
  "buildingid" : "K259"
}
, {
  "consttype" : "CIP",
  "award" : "5359400.00",
  "boro" : "K",
  "building_address" : "101 PARK AVENUE",
  "city" : "Brooklyn",
  "geo_dist" : "13",
  "projdesc" : "PLANYC BOILER CNVRSN/PLANYC CLIMATE CTRL",
  "name" : "I.S. 265 -BROOKLYN",
  "zip_code" : "11205",
  "buildingid" : "K265"
}
, {
  "consttype" : "CIP",
  "award" : "1323000.00",
  "boro" : "K",
  "building_address" : "101-24 SEAVIEW AVENUE",
  "city" : "Brooklyn",
  "geo_dist" : "18",
  "projdesc" : "PLAYGROUND REDEVELOPMENT AND TCU REMOVAL",
  "name" : "P.S. 272 - BROOKLYN",
  "zip_code" : "11236",
  "buildingid" : "K272"
}
, {
  "consttype" : "CIP",
  "award" : "21599000.00",
  "boro" : "K",
  "building_address" : "1070 EAST 104 STREET",
  "city" : "Brooklyn",
  "geo_dist" : "18",
  "projdesc" : "SANDY:INTERIOR/HEAT/ELEC/FLOOD/ELEVATOR/HVAC/FA",
  "name" : "P.S. 279 - BROOKLYN",
  "zip_code" : "11236",
  "buildingid" : "K279"
}
, {
  "consttype" : "CIP",
  "award" : "2098915.00",
  "boro" : "K",
  "building_address" : "8787 24 AVENUE",
  "city" : "Brooklyn",
  "geo_dist" : "21",
  "projdesc" : "SANDY:ELEVATOR UPG/FLOOD/FIRE ALARM",
  "name" : "I.S. 281 - BROOKLYN",
  "zip_code" : "11214",
  "buildingid" : "K281"
}
, {
  "consttype" : "CIP",
  "award" : "12853000.00",
  "boro" : "K",
  "building_address" : "2950 WEST 25 STREET",
  "city" : "Brooklyn",
  "geo_dist" : "21",
  "projdesc" : "INTERIOR SPACES/HEATING/ELEC/FLOOD/CLIMATE",
  "name" : "P.S. 288 - BROOKLYN",
  "zip_code" : "11224",
  "buildingid" : "K288"
}
, {
  "consttype" : "CIP",
  "award" : "810000.00",
  "boro" : "K",
  "building_address" : "135 SCHENCK AVENUE",
  "city" : "Brooklyn",
  "geo_dist" : "19",
  "projdesc" : "TCU REMOVAL & PLAYGROUND REDEVELOPMENT",
  "name" : "P.S. 290 - BROOKLYN",
  "zip_code" : "11207",
  "buildingid" : "K290"
}
, {
  "consttype" : "CIP",
  "award" : "12710000.00",
  "boro" : "K",
  "building_address" : "284 BALTIC STREET",
  "city" : "Brooklyn",
  "geo_dist" : "15",
  "projdesc" : "DAMAGED EXTERIOR MASONRY/PARAPETS/ROOF",
  "name" : "SCHOOL FOR INT'L STUD - K",
  "zip_code" : "11201",
  "buildingid" : "K293"
}
, {
  "consttype" : "CIP",
  "award" : "579130.00",
  "boro" : "K",
  "building_address" : "125 COVERT STREET",
  "city" : "Brooklyn",
  "geo_dist" : "32",
  "projdesc" : "FY16 RESO A AUDITORIUM UPGRADE",
  "name" : "I.S. 562 - BROOKLYN",
  "zip_code" : "11207",
  "buildingid" : "K296"
}
, {
  "consttype" : "CIP",
  "award" : "181700.00",
  "boro" : "K",
  "building_address" : "700 PARK AVENUE",
  "city" : "Brooklyn",
  "geo_dist" : "14",
  "projdesc" : "FY16 RESO A LIBRARY UPGRADE",
  "name" : "P.S. 297 - BROOKLYN",
  "zip_code" : "11206",
  "buildingid" : "K297"
}
, {
  "consttype" : "CIP",
  "award" : "707000.00",
  "boro" : "K",
  "building_address" : "350 LINWOOD STREET",
  "city" : "Brooklyn",
  "geo_dist" : "19",
  "projdesc" : "TCU REMOVAL/PLAYGROUND REDEVELOPMENT",
  "name" : "LIBERTY AVENUE MIDDLE SCHOOL",
  "zip_code" : "11208",
  "buildingid" : "K302"
}
, {
  "consttype" : "CIP",
  "award" : "6721000.00",
  "boro" : "K",
  "building_address" : "209 YORK STREET",
  "city" : "Brooklyn",
  "geo_dist" : "13",
  "projdesc" : "CRACKED EXT MASONRY/ROOFS/PARAPETS",
  "name" : "P.S. 307 - BROOKLYN",
  "zip_code" : "11201",
  "buildingid" : "K307"
}
, {
  "consttype" : "CIP",
  "award" : "255965.00",
  "boro" : "K",
  "building_address" : "209 YORK STREET",
  "city" : "Brooklyn",
  "geo_dist" : "13",
  "projdesc" : "RENOVATION OF CLASSROOM 332",
  "name" : "P.S. 307 - BROOKLYN",
  "zip_code" : "11201",
  "buildingid" : "K307"
}
, {
  "consttype" : "CIP",
  "award" : "463800.00",
  "boro" : "K",
  "building_address" : "616 QUINCY STREET",
  "city" : "Brooklyn",
  "geo_dist" : "16",
  "projdesc" : "FY14 RESO A LIBRARY UPGRADE",
  "name" : "P.S. 308 - BROOKLYN",
  "zip_code" : "11221",
  "buildingid" : "K308"
}
, {
  "consttype" : "CIP",
  "award" : "6238000.00",
  "boro" : "K",
  "building_address" : "46 MCKEEVER PLACE",
  "city" : "Brooklyn",
  "geo_dist" : "17",
  "projdesc" : "PLANYC BOILER CNVRSN/PLANYC CLIMATE CTRL",
  "name" : "P.S. 375 - BROOKLYN",
  "zip_code" : "11225",
  "buildingid" : "K320"
}
, {
  "consttype" : "CIP",
  "award" : "5581000.00",
  "boro" : "K",
  "building_address" : "180 7TH AVENUE",
  "city" : "Brooklyn",
  "geo_dist" : "15",
  "projdesc" : "FULL PROGRAM ACCESSIBILITY/FIRE ALARM",
  "name" : "P.S. 321 - BROOKLYN",
  "zip_code" : "11215",
  "buildingid" : "K321"
}
, {
  "consttype" : "CIP",
  "award" : "44175.77",
  "boro" : "K",
  "building_address" : "200 WOODBINE STREET",
  "city" : "Brooklyn",
  "geo_dist" : "32",
  "projdesc" : "LL 41-16 COMPLIANCE",
  "name" : "P.S. 377 - BROOKLYN",
  "zip_code" : "11221",
  "buildingid" : "K377"
}
, {
  "consttype" : "CIP",
  "award" : "687400.00",
  "boro" : "K",
  "building_address" : "1224 PARK PLACE",
  "city" : "Brooklyn",
  "geo_dist" : "17",
  "projdesc" : "LIBRARY UPGRADE",
  "name" : "M.S. 354 - BROOKLYN",
  "zip_code" : "11213",
  "buildingid" : "K390"
}
, {
  "consttype" : "CIP",
  "award" : "1445999.00",
  "boro" : "K",
  "building_address" : "2630 BENSON AVENUE",
  "city" : "Brooklyn",
  "geo_dist" : "21",
  "projdesc" : "ELECTRICAL LIGHTING FIXTURES",
  "name" : "KINGSBOROUGH EARLY COLLEGE SCH",
  "zip_code" : "11214",
  "buildingid" : "K400"
}
, {
  "consttype" : "CIP",
  "award" : "16343000.00",
  "boro" : "K",
  "building_address" : "2630 BENSON AVENUE",
  "city" : "Brooklyn",
  "geo_dist" : "21",
  "projdesc" : "SANDY:INT/HEAT/FLOOD/PIPING/NON-SANDY:PIPING/FLOOD",
  "name" : "KINGSBOROUGH EARLY COLLEGE SCH",
  "zip_code" : "11214",
  "buildingid" : "K400"
}
, {
  "consttype" : "CIP",
  "award" : "18211000.00",
  "boro" : "K",
  "building_address" : "1124 EAST 17 STREET",
  "city" : "Brooklyn",
  "geo_dist" : "21",
  "projdesc" : "CRACKED CONCRETE STRUCTURE/FIELD HOUSE",
  "name" : "MIDWOOD HS - BROOKLYN",
  "zip_code" : "11210",
  "buildingid" : "K406"
}
, {
  "consttype" : "CIP",
  "award" : "38162000.00",
  "boro" : "K",
  "building_address" : "2800 OCEAN PARKWAY",
  "city" : "Brooklyn",
  "geo_dist" : "21",
  "projdesc" : "SANDY: INTERIOR/VENT/ELEC/FLOOD/ATHLETIC FIELD",
  "name" : "ABRAHAM LINCOLN HS - BROOKLYN",
  "zip_code" : "11235",
  "buildingid" : "K411"
}
, {
  "consttype" : "CIP",
  "award" : "4291000.00",
  "boro" : "K",
  "building_address" : "29 FT GREENE PLACE",
  "city" : "Brooklyn",
  "geo_dist" : "13",
  "projdesc" : "LOW VOLT ELEC SYS/KITCHEN FIRE SUPRESSION SYS",
  "name" : "BROOKLYN TECH HS - K",
  "zip_code" : "11217",
  "buildingid" : "K430"
}
, {
  "consttype" : "CIP",
  "award" : "1032000.00",
  "boro" : "K",
  "building_address" : "400 PENNSYLVANIA AVENUE",
  "city" : "Brooklyn",
  "geo_dist" : "19",
  "projdesc" : "FY14 RESO A GYMNASIUM UPGRADE",
  "name" : "PERFORMING ARTS AND TECH. HS -",
  "zip_code" : "11207",
  "buildingid" : "K435"
}
, {
  "consttype" : "CIP",
  "award" : "20937000.00",
  "boro" : "K",
  "building_address" : "883 CLASSON AVENUE",
  "city" : "Brooklyn",
  "geo_dist" : "17",
  "projdesc" : "MASONRY/WINDOWS/PARAPETS/ROOFS/FLOOD ELIMINAITON",
  "name" : "THE INTERNATIONAL HS - BROOKLY",
  "zip_code" : "11225",
  "buildingid" : "K440"
}
, {
  "consttype" : "CIP",
  "award" : "5290000.00",
  "boro" : "K",
  "building_address" : "1601 80 STREET",
  "city" : "Brooklyn",
  "geo_dist" : "20",
  "projdesc" : "ATHLETIC FIELD REPAIRS",
  "name" : "NEW UTRECHT HS - BROOKLYN",
  "zip_code" : "11214",
  "buildingid" : "K446"
}
, {
  "consttype" : "CIP",
  "award" : "1247000.00",
  "boro" : "K",
  "building_address" : "911 FLATBUSH AVENUE",
  "city" : "Brooklyn",
  "geo_dist" : "17",
  "projdesc" : "ELECTRICAL LIGHTING FIXTURES",
  "name" : "I.S. 382 - BROOKLYN",
  "zip_code" : "11226",
  "buildingid" : "K465"
}
, {
  "consttype" : "CIP",
  "award" : "790000.00",
  "boro" : "K",
  "building_address" : "911 FLATBUSH AVENUE",
  "city" : "Brooklyn",
  "geo_dist" : "17",
  "projdesc" : "FY15 RESO A ELECTRICAL SYSTEMS",
  "name" : "SCIENCE TECH & RESEARCH - K",
  "zip_code" : "11226",
  "buildingid" : "K465"
}
, {
  "consttype" : "CIP",
  "award" : "1250581.23",
  "boro" : "K",
  "building_address" : "400 IRVING AVENUE",
  "city" : "Brooklyn",
  "geo_dist" : "32",
  "projdesc" : "SCHOOL BASED HEALTH CENTER",
  "name" : "BUSHWICK HS OF SOCIAL JUSTICE",
  "zip_code" : "11237",
  "buildingid" : "K480"
}
, {
  "consttype" : "CIP",
  "award" : "428018.00",
  "boro" : "K",
  "building_address" : "8301 SHORE ROAD",
  "city" : "Brooklyn",
  "geo_dist" : "20",
  "projdesc" : "FY14 RESO A AUDITORIUM UPGRADE",
  "name" : "FORT HAMILTON HS - K",
  "zip_code" : "11209",
  "buildingid" : "K490"
}
, {
  "consttype" : "CIP",
  "award" : "1570000.00",
  "boro" : "K",
  "building_address" : "3000 AVENUE X",
  "city" : "Brooklyn",
  "geo_dist" : "22",
  "projdesc" : "SCHOOL BASED HEALTH CENTER",
  "name" : "SHEEPSHEAD BAY HS - BROOKLYN",
  "zip_code" : "11235",
  "buildingid" : "K495"
}
, {
  "consttype" : "CIP",
  "award" : "979200.00",
  "boro" : "K",
  "building_address" : "105 JOHNSON STREET",
  "city" : "Brooklyn",
  "geo_dist" : "13",
  "projdesc" : "LIBRARY UPGRADE",
  "name" : "GEORGE WESTINGHOUSE VOC. HS",
  "zip_code" : "11201",
  "buildingid" : "K580"
}
, {
  "consttype" : "CIP",
  "award" : "9743000.00",
  "boro" : "K",
  "building_address" : "105 JOHNSON STREET",
  "city" : "Brooklyn",
  "geo_dist" : "13",
  "projdesc" : "PARAPETS/EXTERIOR MASONRY/ROOFS/FLOOD ELIMINATION",
  "name" : "GEORGE WESTINGHOUSE VOC. HS",
  "zip_code" : "11201",
  "buildingid" : "K580"
}
, {
  "consttype" : "CIP",
  "award" : "966800.00",
  "boro" : "K",
  "building_address" : "105 JOHNSON STREET",
  "city" : "Brooklyn",
  "geo_dist" : "13",
  "projdesc" : "SCIENCE LAB UPGRADES",
  "name" : "P.S. 8 - BROOKLYN",
  "zip_code" : "11201",
  "buildingid" : "K580"
}
, {
  "consttype" : "CIP",
  "award" : "7064000.00",
  "boro" : "K",
  "building_address" : "901 CLASSON AVENUE",
  "city" : "Brooklyn",
  "geo_dist" : "17",
  "projdesc" : "FAILING COPING STONE/ROOFS",
  "name" : "CLARA BARTON HS - K",
  "zip_code" : "11225",
  "buildingid" : "K600"
}
, {
  "consttype" : "CIP",
  "award" : "1231000.00",
  "boro" : "K",
  "building_address" : "50 BEDFORD AVENUE",
  "city" : "Brooklyn",
  "geo_dist" : "14",
  "projdesc" : "ELECTRICAL LIGHTING FIXTURES",
  "name" : "AUTOMOTIVE TRADES VOC HS - K",
  "zip_code" : "11222",
  "buildingid" : "K610"
}
, {
  "consttype" : "CIP",
  "award" : "11337000.00",
  "boro" : "K",
  "building_address" : "257 N 6TH STREET",
  "city" : "Brooklyn",
  "geo_dist" : "14",
  "projdesc" : "ROOFS/WINDOWS/PARAPETS/EXT MASONRY",
  "name" : "WIILIAMSBURG PREP- BROOKLYN",
  "zip_code" : "11211",
  "buildingid" : "K650"
}
, {
  "consttype" : "CIP",
  "award" : "5186160.00",
  "boro" : "K",
  "building_address" : "345 DEAN STREET",
  "city" : "Brooklyn",
  "geo_dist" : "15",
  "projdesc" : "ANSUL SYS/FIRE ALARM/MECHANICAL SYS - VENTILATION",
  "name" : "BROOKLYN HS OF THE ARTS - BROO",
  "zip_code" : "11217",
  "buildingid" : "K655"
}
, {
  "consttype" : "CIP",
  "award" : "6577000.00",
  "boro" : "K",
  "building_address" : "345 DEAN STREET",
  "city" : "Brooklyn",
  "geo_dist" : "15",
  "projdesc" : "DAMAGED EXTERIOR WALLS/ROOFS",
  "name" : "BROOKLYN HS OF THE ARTS - BROO",
  "zip_code" : "11217",
  "buildingid" : "K655"
}
, {
  "consttype" : "CIP",
  "award" : "283000.00",
  "boro" : "K",
  "building_address" : "227 STERLING PLACE",
  "city" : "Brooklyn",
  "geo_dist" : "13",
  "projdesc" : "ELECTRICAL LIGHTING FIXTURES",
  "name" : "I.S. 340 - BROOKLYN",
  "zip_code" : "11238",
  "buildingid" : "K874"
}
, {
  "consttype" : "CIP",
  "award" : "33792000.00",
  "boro" : "K",
  "building_address" : "62 PARK PLACE",
  "city" : "Brooklyn",
  "geo_dist" : "13",
  "projdesc" : "MASONRY/PIPING/DOOR/FLOOD/WIN/PARAPETS/ROOF/HVAC",
  "name" : "I.S. 266 - BROOKLYN",
  "zip_code" : "11217",
  "buildingid" : "K902"
}
, {
  "consttype" : "CIP",
  "award" : "1616020.00",
  "boro" : "M",
  "building_address" : "8 HENRY STREET",
  "city" : "Manhattan",
  "geo_dist" : "2",
  "projdesc" : "RPZ VALVES/LOW VOLTAGE ELECTRICAL/ANSUL SYSTEM",
  "name" : "P.S. 1 - MANHATTAN",
  "zip_code" : "10038",
  "buildingid" : "M001"
}
, {
  "consttype" : "CIP",
  "award" : "1543000.00",
  "boro" : "M",
  "building_address" : "3703 TENTH AVENUE",
  "city" : "Manhattan",
  "geo_dist" : "6",
  "projdesc" : "FIRE ALARM SYSTEM/SMOKE DAMPERS",
  "name" : "P.S. 5 - MANHATTAN",
  "zip_code" : "10034",
  "buildingid" : "M005"
}
, {
  "consttype" : "CIP",
  "award" : "10770000.00",
  "boro" : "M",
  "building_address" : "3703 TENTH AVENUE",
  "city" : "Manhattan",
  "geo_dist" : "6",
  "projdesc" : "PARAPETS/ROOFS/WINDOWS",
  "name" : "P.S. 5 - MANHATTAN",
  "zip_code" : "10034",
  "buildingid" : "M005"
}
, {
  "consttype" : "CIP",
  "award" : "4523000.00",
  "boro" : "M",
  "building_address" : "2581 7TH AVENUE",
  "city" : "Manhattan",
  "geo_dist" : "5",
  "projdesc" : "SCIENCE LAB ACID WASTE LINES",
  "name" : "FREDERICK DOUGLAS ACADEMY - M",
  "zip_code" : "10039",
  "buildingid" : "M010"
}
, {
  "consttype" : "CIP",
  "award" : "480000.00",
  "boro" : "M",
  "building_address" : "328 WEST 48 STREET",
  "city" : "Manhattan",
  "geo_dist" : "2",
  "projdesc" : "FY13 RESO A ROOM CONVERSIONS / PART",
  "name" : "P.P.A.S. - MANHATTAN",
  "zip_code" : "10036",
  "buildingid" : "M017"
}
, {
  "consttype" : "CIP",
  "award" : "7315000.00",
  "boro" : "M",
  "building_address" : "328 WEST 48 STREET",
  "city" : "Manhattan",
  "geo_dist" : "2",
  "projdesc" : "MASONRY/AUD UPG/WIN/FLOOD/PARAPETS/ROOFS/FA",
  "name" : "P.P.A.S. - MANHATTAN",
  "zip_code" : "10036",
  "buildingid" : "M017"
}
, {
  "consttype" : "CIP",
  "award" : "311000.00",
  "boro" : "M",
  "building_address" : "319 EAST 19 STREET",
  "city" : "Manhattan",
  "geo_dist" : "2",
  "projdesc" : "FY16 RESO A ROOFTOP PLAYGROUND",
  "name" : "P.S. 40 - MANHATTAN",
  "zip_code" : "10003",
  "buildingid" : "M040"
}
, {
  "consttype" : "CIP",
  "award" : "2654000.00",
  "boro" : "M",
  "building_address" : "223 EAST 23 STREET",
  "city" : "Manhattan",
  "geo_dist" : "2",
  "projdesc" : "PARAPETS/WINDOWS/EXTERIOR MASONRY",
  "name" : "J.H.S. 47 (SCH FOR THE DEAF) -",
  "zip_code" : "10010",
  "buildingid" : "M047"
}
, {
  "consttype" : "CIP",
  "award" : "883000.00",
  "boro" : "M",
  "building_address" : "103 WEST 107 STREET",
  "city" : "Manhattan",
  "geo_dist" : "3",
  "projdesc" : "MASONRY & GRANITE STEP DEFECTS",
  "name" : "I.S. 54 - MANHATTAN",
  "zip_code" : "10025",
  "buildingid" : "M054"
}
, {
  "consttype" : "CIP",
  "award" : "150000.00",
  "boro" : "M",
  "building_address" : "420 EAST 12 STREET",
  "city" : "Manhattan",
  "geo_dist" : "1",
  "projdesc" : "FIFTH FLOOR CEILING REPLACEMENT",
  "name" : "EASTSIDE COMMUNITY HS - M",
  "zip_code" : "10009",
  "buildingid" : "M060"
}
, {
  "consttype" : "CIP",
  "award" : "2646000.00",
  "boro" : "M",
  "building_address" : "610 EAST 12 STREET",
  "city" : "Manhattan",
  "geo_dist" : "1",
  "projdesc" : "RPZ VALVES/LOW VOLT/ELEC UPGRADE",
  "name" : "P.S. 361 - MANHATTAN",
  "zip_code" : "10009",
  "buildingid" : "M061"
}
, {
  "consttype" : "CIP",
  "award" : "20539600.00",
  "boro" : "M",
  "building_address" : "121 EAST 3 STREET",
  "city" : "Manhattan",
  "geo_dist" : "1",
  "projdesc" : "PARAPETS/ROOFS/FLOOD ELIMINATION/EXTERIOR MASONRY",
  "name" : "P.S. 63 - MANHATTAN",
  "zip_code" : "10009",
  "buildingid" : "M063"
}
, {
  "consttype" : "CIP",
  "award" : "14061000.00",
  "boro" : "M",
  "building_address" : "131 EAST 104 STREET",
  "city" : "Manhattan",
  "geo_dist" : "4",
  "projdesc" : "PARAPETS/MASONRY/RM UPG/FLOOD/ROOF/PLAYGROUND",
  "name" : "P.S. 72 - MANHATTAN",
  "zip_code" : "10029",
  "buildingid" : "M072"
}
, {
  "consttype" : "CIP",
  "award" : "718920.00",
  "boro" : "M",
  "building_address" : "131 EAST 104 STREET",
  "city" : "Manhattan",
  "geo_dist" : "4",
  "projdesc" : "SCIENCE LAB UPGRADE",
  "name" : "P.S. 72 - MANHATTAN",
  "zip_code" : "10029",
  "buildingid" : "M072"
}
, {
  "consttype" : "CIP",
  "award" : "6666000.00",
  "boro" : "M",
  "building_address" : "735 WEST END AVENUE",
  "city" : "Manhattan",
  "geo_dist" : "3",
  "projdesc" : "PLAYNYC BOILER CONVERSION/CLIMATE CONTROL",
  "name" : "P.S. 75 - MANHATTAN",
  "zip_code" : "10025",
  "buildingid" : "M075"
}
, {
  "consttype" : "CIP",
  "award" : "250000.00",
  "boro" : "M",
  "building_address" : "735 WEST END AVENUE",
  "city" : "Manhattan",
  "geo_dist" : "3",
  "projdesc" : "TEMPORARY BOILER",
  "name" : "P.S. 75 - MANHATTAN",
  "zip_code" : "10025",
  "buildingid" : "M075"
}
, {
  "consttype" : "CIP",
  "award" : "6913000.00",
  "boro" : "M",
  "building_address" : "525 EAST HOUSTON STREET",
  "city" : "Manhattan",
  "geo_dist" : "1",
  "projdesc" : "NON-SANDY:MASONRY/ROOF/PARAPET/SANDY:FLOOD/MASONRY",
  "name" : "BARD COLLEGE HS - MANHATTAN",
  "zip_code" : "10002",
  "buildingid" : "M097"
}
, {
  "consttype" : "CIP",
  "award" : "3034000.00",
  "boro" : "M",
  "building_address" : "141 EAST 111 STREET",
  "city" : "Manhattan",
  "geo_dist" : "4",
  "projdesc" : "PLANYC BOILER CNVRSN/PLANYC CLIMATE CTRL",
  "name" : "P.S. 101 - MANHATTAN",
  "zip_code" : "10029",
  "buildingid" : "M101"
}
, {
  "consttype" : "CIP",
  "award" : "727000.00",
  "boro" : "M",
  "building_address" : "315 EAST 113 STREET",
  "city" : "Manhattan",
  "geo_dist" : "4",
  "projdesc" : "DEFECTIVE CONCRETE BEAM FIRE PROOFING",
  "name" : "P.S. 102 - MANHATTAN",
  "zip_code" : "10029",
  "buildingid" : "M102"
}
, {
  "consttype" : "CIP",
  "award" : "6384000.00",
  "boro" : "M",
  "building_address" : "1615 MADISON AVENUE",
  "city" : "Manhattan",
  "geo_dist" : "4",
  "projdesc" : "PLANYC BOILER/PLANC CLIMATE CTRL/LOW VOLT/KITCHEN",
  "name" : "P.S. 108 - MANHATTAN",
  "zip_code" : "10029",
  "buildingid" : "M108"
}
, {
  "consttype" : "CIP",
  "award" : "1337000.00",
  "boro" : "M",
  "building_address" : "240 WEST 113 STREET",
  "city" : "Manhattan",
  "geo_dist" : "3",
  "projdesc" : "FLOOD ELIMINATION",
  "name" : "P.S. 241 - MANHATTAN",
  "zip_code" : "10026",
  "buildingid" : "M113"
}
, {
  "consttype" : "CIP",
  "award" : "4697000.00",
  "boro" : "M",
  "building_address" : "240 WEST 113 STREET",
  "city" : "Manhattan",
  "geo_dist" : "3",
  "projdesc" : "PLANYC BOILER CONVERSION/CIMATE CONTROL",
  "name" : "P.S. 241 - MANHATTAN",
  "zip_code" : "10026",
  "buildingid" : "M113"
}
, {
  "consttype" : "CIP",
  "award" : "11148891.00",
  "boro" : "M",
  "building_address" : "154 WEST 93 STREET",
  "city" : "Manhattan",
  "geo_dist" : "3",
  "projdesc" : "EXTERIOR MASONRY/ROOFS/PARAPETS",
  "name" : "P.S. 333 - MANHATTAN",
  "zip_code" : "10025",
  "buildingid" : "M118"
}
, {
  "consttype" : "CIP",
  "award" : "4815000.00",
  "boro" : "M",
  "building_address" : "301 WEST 140 STREET",
  "city" : "Manhattan",
  "geo_dist" : "5",
  "projdesc" : "FLOOD ELIMINATION",
  "name" : "P.S. 123 - MANHATTAN",
  "zip_code" : "10030",
  "buildingid" : "M123"
}
, {
  "consttype" : "CIP",
  "award" : "6790000.00",
  "boro" : "M",
  "building_address" : "560 WEST 169 STREET",
  "city" : "Manhattan",
  "geo_dist" : "6",
  "projdesc" : "PLANYC BOILER CNVSN/PLANYC CLIMATE CTRL",
  "name" : "P.S. 128 - MANHATTAN",
  "zip_code" : "10032",
  "buildingid" : "M128"
}
, {
  "consttype" : "CIP",
  "award" : "782100.00",
  "boro" : "M",
  "building_address" : "425 WEST 130 STREET",
  "city" : "Manhattan",
  "geo_dist" : "5",
  "projdesc" : "SCIENCE LAB UPGRADES",
  "name" : "P.S. 129 - MANHATTAN",
  "zip_code" : "10027",
  "buildingid" : "M129"
}
, {
  "consttype" : "CIP",
  "award" : "1097000.00",
  "boro" : "M",
  "building_address" : "143 BAXTER STREET",
  "city" : "Manhattan",
  "geo_dist" : "2",
  "projdesc" : "STRUCTURAL DEFICIENCIES",
  "name" : "P.S. 130 - MANHATTAN",
  "zip_code" : "10013",
  "buildingid" : "M130"
}
, {
  "consttype" : "CIP",
  "award" : "3073000.00",
  "boro" : "M",
  "building_address" : "150 WEST 105 STREET",
  "city" : "Manhattan",
  "geo_dist" : "3",
  "projdesc" : "PLANYC BOILER CNVSN/PLANYC CLIMATE CTRL",
  "name" : "P.S. 145 - MANHATTAN",
  "zip_code" : "10025",
  "buildingid" : "M145"
}
, {
  "consttype" : "CIP",
  "award" : "3332800.00",
  "boro" : "M",
  "building_address" : "421 EAST 106 STREET",
  "city" : "Manhattan",
  "geo_dist" : "4",
  "projdesc" : "PLANYC BOILER CNVRSN/PLANYC CLIMATE CTRL",
  "name" : "P.S. 146 - MANHATTAN",
  "zip_code" : "10029",
  "buildingid" : "M146"
}
, {
  "consttype" : "CIP",
  "award" : "927000.00",
  "boro" : "M",
  "building_address" : "93 NAGLE AVENUE",
  "city" : "Manhattan",
  "geo_dist" : "6",
  "projdesc" : "FIRE ALARM",
  "name" : "P.S. 152 - MANHATTAN",
  "zip_code" : "10040",
  "buildingid" : "M152"
}
, {
  "consttype" : "CIP",
  "award" : "25859000.00",
  "boro" : "M",
  "building_address" : "1458 YORK AVENUE",
  "city" : "Manhattan",
  "geo_dist" : "2",
  "projdesc" : "MASONRY/FLOOD ELIMINATION/ROOFS/WINDOWS/PARAPETS",
  "name" : "P.S. 158 - MANHATTAN",
  "zip_code" : "10075",
  "buildingid" : "M158"
}
, {
  "consttype" : "CIP",
  "award" : "6233477.00",
  "boro" : "M",
  "building_address" : "234 WEST 109 STREET",
  "city" : "Manhattan",
  "geo_dist" : "3",
  "projdesc" : "EXT MASONRY/ROOFS",
  "name" : "P.S. 165 - MANHATTAN",
  "zip_code" : "10025",
  "buildingid" : "M165"
}
, {
  "consttype" : "CIP",
  "award" : "6157000.00",
  "boro" : "M",
  "building_address" : "220 EAST 76 STREET",
  "city" : "Manhattan",
  "geo_dist" : "2",
  "projdesc" : "FACADE DAMAGE/SITE WORK/FLOOD/PARAPETS/WINDOWS",
  "name" : "I.S. 167 - MANHATTAN",
  "zip_code" : "10021",
  "buildingid" : "M167"
}
, {
  "consttype" : "CIP",
  "award" : "425000.00",
  "boro" : "M",
  "building_address" : "220 EAST 76 STREET",
  "city" : "Manhattan",
  "geo_dist" : "2",
  "projdesc" : "FY15 RESO A SCIENCE LAB UPGRADES",
  "name" : "I.S. 167 - MANHATTAN",
  "zip_code" : "10021",
  "buildingid" : "M167"
}
, {
  "consttype" : "CIP",
  "award" : "11870000.00",
  "boro" : "M",
  "building_address" : "419 EAST 66 STREET",
  "city" : "Manhattan",
  "geo_dist" : "2",
  "projdesc" : "EXTERIOR MASONRY/FLOOD ELIMINATION/ PARAPETS/ROOFS",
  "name" : "P.S. 183 - MANHATTAN",
  "zip_code" : "10065",
  "buildingid" : "M183"
}
, {
  "consttype" : "CIP",
  "award" : "1098000.00",
  "boro" : "M",
  "building_address" : "500 WEST 138 STREET",
  "city" : "Manhattan",
  "geo_dist" : "6",
  "projdesc" : "SCIENCE LAB UPGRADE",
  "name" : "HAMILTON GRANGE MIDDLE SCHOOL",
  "zip_code" : "10031",
  "buildingid" : "M192"
}
, {
  "consttype" : "CIP",
  "award" : "968000.00",
  "boro" : "M",
  "building_address" : "601 WEST 183 STREET",
  "city" : "Manhattan",
  "geo_dist" : "6",
  "projdesc" : "FUEL OIL TANK REPLACEMENT",
  "name" : "P.S. 132 - MANHATTAN",
  "zip_code" : "10033",
  "buildingid" : "M233"
}
, {
  "consttype" : "CIP",
  "award" : "195000.00",
  "boro" : "M",
  "building_address" : "292 GREENWICH STREET",
  "city" : "Manhattan",
  "geo_dist" : "2",
  "projdesc" : "FY16 RESO A AUDITORIUM UPGRADE",
  "name" : "P.S. 234 - MANHATTAN",
  "zip_code" : "10007",
  "buildingid" : "M234"
}
, {
  "consttype" : "CIP",
  "award" : "4222000.00",
  "boro" : "M",
  "building_address" : "351 WEST 18 STREET",
  "city" : "Manhattan",
  "geo_dist" : "2",
  "projdesc" : "SCIENCE LAB UPGRADE",
  "name" : "BAYARD RUSTIN EDUCATIONAL COMP",
  "zip_code" : "10011",
  "buildingid" : "M440"
}
, {
  "consttype" : "CIP",
  "award" : "18800000.00",
  "boro" : "M",
  "building_address" : "350 GRAND STREET",
  "city" : "Manhattan",
  "geo_dist" : "2",
  "projdesc" : "WINDOWS/PARAPETS/FLOOD/EXT MASONRY/ROOFS",
  "name" : "SEWARD PARK H.S.",
  "zip_code" : "10002",
  "buildingid" : "M445"
}
, {
  "consttype" : "CIP",
  "award" : "3780000.00",
  "boro" : "M",
  "building_address" : "200 MONROE STREET",
  "city" : "Manhattan",
  "geo_dist" : "1",
  "projdesc" : "FIRE ALARM/VENTILATION",
  "name" : "UNIVERSITY NEIGHBORHOOD HS - M",
  "zip_code" : "10002",
  "buildingid" : "M446"
}
, {
  "consttype" : "CIP",
  "award" : "6221001.00",
  "boro" : "M",
  "building_address" : "40 IRVING PLACE",
  "city" : "Manhattan",
  "geo_dist" : "2",
  "projdesc" : "ELECTRICAL SYSTEMS/PA SYSTEM",
  "name" : "GRAMERCY ARTS HS - MANHATTAN",
  "zip_code" : "10003",
  "buildingid" : "M460"
}
, {
  "consttype" : "CIP",
  "award" : "1189512.00",
  "boro" : "M",
  "building_address" : "40 IRVING PLACE",
  "city" : "Manhattan",
  "geo_dist" : "2",
  "projdesc" : "WATER STORAGE TANK",
  "name" : "WASHINGTON IRVING H.S.",
  "zip_code" : "10003",
  "buildingid" : "M460"
}
, {
  "consttype" : "CIP",
  "award" : "43221000.00",
  "boro" : "M",
  "building_address" : "40 IRVING PLACE",
  "city" : "Manhattan",
  "geo_dist" : "2",
  "projdesc" : "EXT. MASONRY/ROOF/PARAPET/ FLOOD ELIM./WINDOWS/GYM",
  "name" : "WASHINGTON IRVING HS - MANHATT",
  "zip_code" : "10003",
  "buildingid" : "M460"
}
, {
  "consttype" : "CIP",
  "award" : "38865.86",
  "boro" : "M",
  "building_address" : "317 EAST 67 STREET",
  "city" : "Manhattan",
  "geo_dist" : "2",
  "projdesc" : "LL 41-16 COMPLIANCE",
  "name" : "JULIA RICHMAN H.S.",
  "zip_code" : "10065",
  "buildingid" : "M480"
}
, {
  "consttype" : "CIP",
  "award" : "2295000.00",
  "boro" : "M",
  "building_address" : "411 PEARL STREET",
  "city" : "Manhattan",
  "geo_dist" : "2",
  "projdesc" : "LIBRARY UPGRADE",
  "name" : "BERGTRAUM HS - MANHATTAN",
  "zip_code" : "10038",
  "buildingid" : "M520"
}
, {
  "consttype" : "CIP",
  "award" : "1994000.00",
  "boro" : "M",
  "building_address" : "525 WEST 50 STREET",
  "city" : "Manhattan",
  "geo_dist" : "2",
  "projdesc" : "FY11 RESO A ROOFS",
  "name" : "FOOD AND FINANCE HS - MANHATTA",
  "zip_code" : "10019",
  "buildingid" : "M535"
}
, {
  "consttype" : "CIP",
  "award" : "23313000.00",
  "boro" : "M",
  "building_address" : "525 WEST 50 STREET",
  "city" : "Manhattan",
  "geo_dist" : "2",
  "projdesc" : "C OF O/C OF O VENT/WATER PLANT/BOILER/ENERGY MGMT",
  "name" : "PARK WEST H. S. (ECF)",
  "zip_code" : "10019",
  "buildingid" : "M535"
}
, {
  "consttype" : "CIP",
  "award" : "1151999.00",
  "boro" : "M",
  "building_address" : "443 WEST 135 STREET",
  "city" : "Manhattan",
  "geo_dist" : "6",
  "projdesc" : "LIGHTING REPLACEMENT",
  "name" : "A. PHILIP RANDOLPH HS -MANHATT",
  "zip_code" : "10031",
  "buildingid" : "M540"
}
, {
  "consttype" : "CIP",
  "award" : "3300000.00",
  "boro" : "M",
  "building_address" : "225 WEST 24 STREET",
  "city" : "Manhattan",
  "geo_dist" : "2",
  "projdesc" : "ACCESSIBILITY",
  "name" : "FASHION INDUSTRIES VOC HS - M",
  "zip_code" : "10011",
  "buildingid" : "M600"
}
, {
  "consttype" : "CIP",
  "award" : "2314098.00",
  "boro" : "M",
  "building_address" : "131 AVE OF THE AMERICAS",
  "city" : "Manhattan",
  "geo_dist" : "2",
  "projdesc" : "LOW VOLTAGE ELECTRICAL SYSTEM/ANSUL SYSTEM",
  "name" : "CHELSEA VOC HS - MANHATTAN",
  "zip_code" : "10013",
  "buildingid" : "M615"
}
, {
  "consttype" : "CIP",
  "award" : "8627000.00",
  "boro" : "M",
  "building_address" : "439 WEST 49 STREET",
  "city" : "Manhattan",
  "geo_dist" : "2",
  "projdesc" : "PLANYC BOILERS CONVERSION/CLIMATE CONTROL",
  "name" : "HS OF GRAPHIC COMM. ARTS (VOC)",
  "zip_code" : "10019",
  "buildingid" : "M625"
}
, {
  "consttype" : "CIP",
  "award" : "6142800.00",
  "boro" : "M",
  "building_address" : "16 CLARKSON STREET",
  "city" : "Manhattan",
  "geo_dist" : "2",
  "projdesc" : "REINFORCE CINDER/FLOORS/ACCESSIBLITY/ELEC UPG/FA",
  "name" : "M721 SPED - MANHATTAN",
  "zip_code" : "10014",
  "buildingid" : "M641"
}
, {
  "consttype" : "CIP",
  "award" : "298786.00",
  "boro" : "M",
  "building_address" : "512 WEST 182 STREET",
  "city" : "Manhattan",
  "geo_dist" : "6",
  "projdesc" : "FY16 RESO A PLAYGROUND UPGRADE",
  "name" : "I.S. 348 - MANHATTAN",
  "zip_code" : "10033",
  "buildingid" : "M859"
}
, {
  "consttype" : "CIP",
  "award" : "507657.00",
  "boro" : "Q",
  "building_address" : "75-10 21 AVENUE",
  "city" : "Queens",
  "geo_dist" : "30",
  "projdesc" : "FY15 RESO A ACCESSIBILITY",
  "name" : "P.S. 2 - QUEENS",
  "zip_code" : "11370",
  "buildingid" : "Q002"
}
, {
  "consttype" : "CIP",
  "award" : "4710000.00",
  "boro" : "Q",
  "building_address" : "50-40 JACOBUS STREET",
  "city" : "Queens",
  "geo_dist" : "24",
  "projdesc" : "HVAC/PUBLIC ADDRESS SYSTEM",
  "name" : "I.S. 5 - QUEENS",
  "zip_code" : "11373",
  "buildingid" : "Q005"
}
, {
  "consttype" : "CIP",
  "award" : "5887000.00",
  "boro" : "Q",
  "building_address" : "42-00 72 STREET",
  "city" : "Queens",
  "geo_dist" : "24",
  "projdesc" : "BOILER REPLACE/ELEC SWITCH UPG/PLANYC CLIMATE CTRL",
  "name" : "P.S. 12 - QUEENS",
  "zip_code" : "11377",
  "buildingid" : "Q012"
}
, {
  "consttype" : "CIP",
  "award" : "10068000.00",
  "boro" : "Q",
  "building_address" : "107-01 OTIS AVENUE",
  "city" : "Queens",
  "geo_dist" : "24",
  "projdesc" : "ROOFS/PARAPETS/EXT MASONRY",
  "name" : "P.S. 14 - QUEENS",
  "zip_code" : "11368",
  "buildingid" : "Q014"
}
, {
  "consttype" : "CIP",
  "award" : "887333.00",
  "boro" : "Q",
  "building_address" : "138-11 35 AVENUE",
  "city" : "Queens",
  "geo_dist" : "25",
  "projdesc" : "TOILETS-STUDENT",
  "name" : "QUEENS ACADEMY HIGH SCHOOL - Q",
  "zip_code" : "11354",
  "buildingid" : "Q023"
}
, {
  "consttype" : "CIP",
  "award" : "1450000.00",
  "boro" : "Q",
  "building_address" : "138-11 35 AVENUE",
  "city" : "Queens",
  "geo_dist" : "25",
  "projdesc" : "WATER PENETRATION/EXT MASONRY/ROOFS",
  "name" : "QUEENS ACADEMY HIGH SCHOOL - Q",
  "zip_code" : "11354",
  "buildingid" : "Q023"
}
, {
  "consttype" : "CIP",
  "award" : "536250.00",
  "boro" : "Q",
  "building_address" : "195-02 69 AVENUE",
  "city" : "Queens",
  "geo_dist" : "26",
  "projdesc" : "FY15 RESO A LOW-VOLTAGE ELECTRICAL SYSTEM",
  "name" : "P.S. 26 - QUEENS",
  "zip_code" : "11365",
  "buildingid" : "Q026"
}
, {
  "consttype" : "CIP",
  "award" : "5977000.00",
  "boro" : "Q",
  "building_address" : "126-10 BEDELL STREET",
  "city" : "Queens",
  "geo_dist" : "28",
  "projdesc" : "DEFECTIVE PARAPET WALL/ROOFS/EXT MASONRY",
  "name" : "P.S. 354 - QUEENS",
  "zip_code" : "11434",
  "buildingid" : "Q030"
}
, {
  "consttype" : "CIP",
  "award" : "365696.00",
  "boro" : "Q",
  "building_address" : "171-11 35 AVENUE",
  "city" : "Queens",
  "geo_dist" : "25",
  "projdesc" : "FY15 RESO A AUDITORIUM UPGRADE",
  "name" : "P.S. 32 - QUEENS",
  "zip_code" : "11358",
  "buildingid" : "Q032"
}
, {
  "consttype" : "CIP",
  "award" : "8860557.00",
  "boro" : "Q",
  "building_address" : "91-37 222 STREET",
  "city" : "Queens",
  "geo_dist" : "29",
  "projdesc" : "ROOF REPAIR/PARAPETS/EXTERIOR MASONRY",
  "name" : "P.S. 33 - QUEENS",
  "zip_code" : "11428",
  "buildingid" : "Q033"
}
, {
  "consttype" : "CIP",
  "award" : "15125767.00",
  "boro" : "Q",
  "building_address" : "488 BEACH 66 STREET",
  "city" : "Queens",
  "geo_dist" : "27",
  "projdesc" : "SANDY:INT/HEATING/FLOOD/CLIMATE/PIPING/HVAC/ELEC",
  "name" : "P.S. 42 - QUEENS",
  "zip_code" : "11692",
  "buildingid" : "Q042"
}
, {
  "consttype" : "CIP",
  "award" : "412810.00",
  "boro" : "Q",
  "building_address" : "160 BEACH 29TH STREET",
  "city" : "Queens",
  "geo_dist" : "27",
  "projdesc" : "SANDY- ELEVATOR REPAIR",
  "name" : "P.S. 43 - QUEENS",
  "zip_code" : "11691",
  "buildingid" : "Q043"
}
, {
  "consttype" : "CIP",
  "award" : "15000000.00",
  "boro" : "Q",
  "building_address" : "160 BEACH 29TH STREET",
  "city" : "Queens",
  "geo_dist" : "27",
  "projdesc" : "SANDY-INTERIOR/HEATING/FLOOD/SHINGLE ROOF/CLIMATE",
  "name" : "P.S. 43 - QUEENS",
  "zip_code" : "11691",
  "buildingid" : "Q043"
}
, {
  "consttype" : "CIP",
  "award" : "188000.00",
  "boro" : "Q",
  "building_address" : "126-28 150 STREET",
  "city" : "Queens",
  "geo_dist" : "27",
  "projdesc" : "FY15 RESO A AUDITORIUM UPGRADE",
  "name" : "P.S. 45 - QUEENS",
  "zip_code" : "11436",
  "buildingid" : "Q045"
}
, {
  "consttype" : "CIP",
  "award" : "657500.00",
  "boro" : "Q",
  "building_address" : "178-37 146 TERRACE",
  "city" : "Queens",
  "geo_dist" : "29",
  "projdesc" : "ELECTRICAL LIGHTING FIXTURES",
  "name" : "P.S. 52 - QUEENS",
  "zip_code" : "11434",
  "buildingid" : "Q052"
}
, {
  "consttype" : "CIP",
  "award" : "923949.00",
  "boro" : "Q",
  "building_address" : "178-37 146 TERRACE",
  "city" : "Queens",
  "geo_dist" : "29",
  "projdesc" : "TCU REMOVAL & PLAYGROUND REDEVELOPMENT",
  "name" : "P.S. 52 - QUEENS",
  "zip_code" : "11434",
  "buildingid" : "Q052"
}
, {
  "consttype" : "CIP",
  "award" : "331000.00",
  "boro" : "Q",
  "building_address" : "90-15 SUTTER AVENUE",
  "city" : "Queens",
  "geo_dist" : "27",
  "projdesc" : "FY15 RESO A AUDITORIUM UPGRADE",
  "name" : "P.S. 63 - QUEENS",
  "zip_code" : "11417",
  "buildingid" : "Q063"
}
, {
  "consttype" : "CIP",
  "award" : "4368000.00",
  "boro" : "Q",
  "building_address" : "90-15 SUTTER AVENUE",
  "city" : "Queens",
  "geo_dist" : "27",
  "projdesc" : "WATER PENETRATION/EXT MASONRY/PARAPETS/ROOFS",
  "name" : "P.S. 63 - QUEENS",
  "zip_code" : "11417",
  "buildingid" : "Q063"
}
, {
  "consttype" : "CIP",
  "award" : "229777.00",
  "boro" : "Q",
  "building_address" : "82-01 101 AVENUE",
  "city" : "Queens",
  "geo_dist" : "27",
  "projdesc" : "FY16 RESO A AUDITORIUM",
  "name" : "P.S. 64 - QUEENS",
  "zip_code" : "11416",
  "buildingid" : "Q064"
}
, {
  "consttype" : "CIP",
  "award" : "2277000.00",
  "boro" : "Q",
  "building_address" : "133-25 GUY R BREWER BOULEVARD",
  "city" : "Queens",
  "geo_dist" : "28",
  "projdesc" : "FY13 RESO A PLAYGROUND REDEVELOPMENT",
  "name" : "J.H.S. 72 - QUEENS",
  "zip_code" : "11434",
  "buildingid" : "Q072"
}
, {
  "consttype" : "CIP",
  "award" : "925000.00",
  "boro" : "Q",
  "building_address" : "70-02 54 AVENUE",
  "city" : "Queens",
  "geo_dist" : "24",
  "projdesc" : "LOW VOLT ELECTRICAL SYSTEMS",
  "name" : "I.S. 73 - QUEENS",
  "zip_code" : "11378",
  "buildingid" : "Q073"
}
, {
  "consttype" : "CIP",
  "award" : "192500.00",
  "boro" : "Q",
  "building_address" : "61-15 OCEANIA STREET",
  "city" : "Queens",
  "geo_dist" : "26",
  "projdesc" : "FY16 RESO A AUDITORIUM UPGRADE",
  "name" : "I.S. 74 - QUEENS",
  "zip_code" : "11364",
  "buildingid" : "Q074"
}
, {
  "consttype" : "CIP",
  "award" : "4596000.00",
  "boro" : "Q",
  "building_address" : "16-66 HANCOCK STREET",
  "city" : "Queens",
  "geo_dist" : "24",
  "projdesc" : "PLANYC BOILER CNVRSN/PLANYC CLIMATE CTRL",
  "name" : "Q075 SPED - QUEENS",
  "zip_code" : "11385",
  "buildingid" : "Q075"
}
, {
  "consttype" : "CIP",
  "award" : "377000.00",
  "boro" : "Q",
  "building_address" : "147-27 15 DRIVE",
  "city" : "Queens",
  "geo_dist" : "25",
  "projdesc" : "RPZ VALVE",
  "name" : "P.S. 79 - QUEENS",
  "zip_code" : "11357",
  "buildingid" : "Q079"
}
, {
  "consttype" : "CIP",
  "award" : "1658786.00",
  "boro" : "Q",
  "building_address" : "23-70 31 STREET",
  "city" : "Queens",
  "geo_dist" : "30",
  "projdesc" : "RPZ VALVES/LOW VOLTAGE/ELECTRICAL UPG",
  "name" : "P.S. 85 - QUEENS",
  "zip_code" : "11105",
  "buildingid" : "Q085"
}
, {
  "consttype" : "CIP",
  "award" : "549000.00",
  "boro" : "Q",
  "building_address" : "40-20 235 STREET",
  "city" : "Queens",
  "geo_dist" : "26",
  "projdesc" : "WATER PENETRATION",
  "name" : "P.S. 98 - QUEENS",
  "zip_code" : "11363",
  "buildingid" : "Q098"
}
, {
  "consttype" : "CIP",
  "award" : "459000.00",
  "boro" : "Q",
  "building_address" : "2 RUSSELL PLACE",
  "city" : "Queens",
  "geo_dist" : "28",
  "projdesc" : "FY15 RESO A AUDITORIUM UPGRADE",
  "name" : "P.S. 101 - QUEENS",
  "zip_code" : "11375",
  "buildingid" : "Q101"
}
, {
  "consttype" : "CIP",
  "award" : "2777000.00",
  "boro" : "Q",
  "building_address" : "55-24 VAN HORN STREET",
  "city" : "Queens",
  "geo_dist" : "24",
  "projdesc" : "ADA UPGRADE",
  "name" : "P.S. 102 - QUEENS",
  "zip_code" : "11373",
  "buildingid" : "Q102"
}
, {
  "consttype" : "CIP",
  "award" : "21198000.00",
  "boro" : "Q",
  "building_address" : "420 BEACH 51 STREET",
  "city" : "Queens",
  "geo_dist" : "27",
  "projdesc" : "SANDY:HEATING/ELEC/FLOOD/AUD/PIPING/HVAC/INT/PAVED",
  "name" : "P.S. 105 - QUEENS",
  "zip_code" : "11691",
  "buildingid" : "Q105"
}
, {
  "consttype" : "CIP",
  "award" : "14780000.00",
  "boro" : "Q",
  "building_address" : "134-01 CRONSTON AVE",
  "city" : "Queens",
  "geo_dist" : "27",
  "projdesc" : "SANDY:INT/HEATING/ELEC/FLOOD/CLIM/PLAYGRND/PIPING",
  "name" : "P.S. 114 - QUEENS",
  "zip_code" : "11694",
  "buildingid" : "Q114"
}
, {
  "consttype" : "CIP",
  "award" : "5544000.00",
  "boro" : "Q",
  "building_address" : "80-51 261 STREET",
  "city" : "Queens",
  "geo_dist" : "26",
  "projdesc" : "PLANYC BOILER CNVRSN/PLANYC CLIMATE CTRL",
  "name" : "P.S. 115 - QUEENS",
  "zip_code" : "11004",
  "buildingid" : "Q115"
}
, {
  "consttype" : "CIP",
  "award" : "8800000.00",
  "boro" : "Q",
  "building_address" : "107-25 WREN PLACE",
  "city" : "Queens",
  "geo_dist" : "29",
  "projdesc" : "EXT MASONRY/ROOFS/CONCRETE ROOF DECK/PARAPETS",
  "name" : "P.S. 116 - QUEENS",
  "zip_code" : "11433",
  "buildingid" : "Q116"
}
, {
  "consttype" : "CIP",
  "award" : "968100.00",
  "boro" : "Q",
  "building_address" : "126-10 109 AVENUE",
  "city" : "Queens",
  "geo_dist" : "28",
  "projdesc" : "TCU REMOVAL & PLAYGROUND REDEVELOPMENT",
  "name" : "P.S. 121 - QUEENS",
  "zip_code" : "11420",
  "buildingid" : "Q121"
}
, {
  "consttype" : "CIP",
  "award" : "1082000.00",
  "boro" : "Q",
  "building_address" : "145-01 119 AVENUE",
  "city" : "Queens",
  "geo_dist" : "27",
  "projdesc" : "TCU REMOVAL & PLAYGROUND REDEVELOPMENT",
  "name" : "P.S. 123 - QUEENS",
  "zip_code" : "11436",
  "buildingid" : "Q123"
}
, {
  "consttype" : "CIP",
  "award" : "172250.00",
  "boro" : "Q",
  "building_address" : "31-51 21 STREET",
  "city" : "Queens",
  "geo_dist" : "30",
  "projdesc" : "FY16 RESO A PLAYGROUND REDEVELOPMENT",
  "name" : "I.S. 126 - QUEENS",
  "zip_code" : "11106",
  "buildingid" : "Q126"
}
, {
  "consttype" : "CIP",
  "award" : "1456000.00",
  "boro" : "Q",
  "building_address" : "93-06 63 DRIVE",
  "city" : "Queens",
  "geo_dist" : "28",
  "projdesc" : "WATER PENETRATION/ROOFS",
  "name" : "P.S. 139 - QUEENS",
  "zip_code" : "11374",
  "buildingid" : "Q139"
}
, {
  "consttype" : "CIP",
  "award" : "991000.00",
  "boro" : "Q",
  "building_address" : "142-10 LINDEN BLVD",
  "city" : "Queens",
  "geo_dist" : "28",
  "projdesc" : "ELECTRICAL LIGHTING FIXTURES",
  "name" : "Q752 SPED - QUEENS",
  "zip_code" : "11436",
  "buildingid" : "Q142"
}
, {
  "consttype" : "CIP",
  "award" : "8497000.00",
  "boro" : "Q",
  "building_address" : "33-34 80 STREET",
  "city" : "Queens",
  "geo_dist" : "30",
  "projdesc" : "PLANYC BOILER CNVRSN/PLANYC CLIMATE CTRL",
  "name" : "I.S. 145 - QUEENS",
  "zip_code" : "11372",
  "buildingid" : "Q145"
}
, {
  "consttype" : "CIP",
  "award" : "5182000.00",
  "boro" : "Q",
  "building_address" : "50-05 31 AVENUE",
  "city" : "Queens",
  "geo_dist" : "30",
  "projdesc" : "WATER INFILTRATION/ROOFS/PARAPETS/EXT MASONRY",
  "name" : "P.S. 151 - QUEENS",
  "zip_code" : "11377",
  "buildingid" : "Q151"
}
, {
  "consttype" : "CIP",
  "award" : "229500.00",
  "boro" : "Q",
  "building_address" : "63-55 102ND STREET",
  "city" : "Queens",
  "geo_dist" : "28",
  "projdesc" : "FY16 RESO A ROOM CONVERSIONS / PART",
  "name" : "J.H.S. 157 - QUEENS",
  "zip_code" : "11374",
  "buildingid" : "Q157"
}
, {
  "consttype" : "CIP",
  "award" : "9370000.00",
  "boro" : "Q",
  "building_address" : "109-59 INWOOD STREET",
  "city" : "Queens",
  "geo_dist" : "28",
  "projdesc" : "CHIMNEY/ROOFS/PARAPETS/FLOOD",
  "name" : "P.S. 160 - QUEENS",
  "zip_code" : "11435",
  "buildingid" : "Q160"
}
, {
  "consttype" : "CIP",
  "award" : "8630000.00",
  "boro" : "Q",
  "building_address" : "201-02 53 AVENUE",
  "city" : "Queens",
  "geo_dist" : "26",
  "projdesc" : "PARAPET/FLOOD ELIMINATION/EXT MASONRY/ROOFING",
  "name" : "P.S. 162 - QUEENS",
  "zip_code" : "11364",
  "buildingid" : "Q162"
}
, {
  "consttype" : "CIP",
  "award" : "590000.00",
  "boro" : "Q",
  "building_address" : "18-25 212 STREET",
  "city" : "Queens",
  "geo_dist" : "25",
  "projdesc" : "WATER PENETRATION",
  "name" : "P.S. 169 - QUEENS",
  "zip_code" : "11360",
  "buildingid" : "Q169"
}
, {
  "consttype" : "CIP",
  "award" : "351000.00",
  "boro" : "Q",
  "building_address" : "65-10 DIETERLE CRESCENT",
  "city" : "Queens",
  "geo_dist" : "28",
  "projdesc" : "FY16 RESO A ROOM CONV/FY16 RESO A SCIENCE LAB UPG",
  "name" : "P.S. 174 - QUEENS",
  "zip_code" : "11374",
  "buildingid" : "Q174"
}
, {
  "consttype" : "CIP",
  "award" : "7221000.00",
  "boro" : "Q",
  "building_address" : "56-37 188 STREET",
  "city" : "Queens",
  "geo_dist" : "26",
  "projdesc" : "PLANYC BOILER CONVERSION/PLANYC CLIMATE CONTROL",
  "name" : "Q177 SPED - QUEENS",
  "zip_code" : "11365",
  "buildingid" : "Q177"
}
, {
  "consttype" : "CIP",
  "award" : "13563283.00",
  "boro" : "Q",
  "building_address" : "320 BEACH 104 STREET",
  "city" : "Queens",
  "geo_dist" : "27",
  "projdesc" : "SANDY:AC/FLOOD/ELEC/HEAT/INTER/NON-SANDY:CLIM CTRL",
  "name" : "THE SCHOLARS ACADEMY - QUEENS",
  "zip_code" : "11694",
  "buildingid" : "Q180"
}
, {
  "consttype" : "CIP",
  "award" : "4848000.00",
  "boro" : "Q",
  "building_address" : "148-15 230 STREET",
  "city" : "Queens",
  "geo_dist" : "29",
  "projdesc" : "FLOORS & WALLS/ROOFS/PARAPETS/EXT MASONRY/FLOOD",
  "name" : "P.S. 181 - QUEENS",
  "zip_code" : "11413",
  "buildingid" : "Q181"
}
, {
  "consttype" : "CIP",
  "award" : "5631800.00",
  "boro" : "Q",
  "building_address" : "163-15 21 ROAD",
  "city" : "Queens",
  "geo_dist" : "25",
  "projdesc" : "PLANYC BOILER CNVRSN/PLANYC CLIMATE CTRL",
  "name" : "P.S. 184 - QUEENS",
  "zip_code" : "11357",
  "buildingid" : "Q184"
}
, {
  "consttype" : "CIP",
  "award" : "387500.00",
  "boro" : "Q",
  "building_address" : "144-80 BARCLAY AVENUE",
  "city" : "Queens",
  "geo_dist" : "25",
  "projdesc" : "FY14 RESO A ROOM CONVERSIONS/PART",
  "name" : "THE FLUSHING INTERNATIONAL HS",
  "zip_code" : "11355",
  "buildingid" : "Q189"
}
, {
  "consttype" : "CIP",
  "award" : "304000.00",
  "boro" : "Q",
  "building_address" : "68-17 AUSTIN STREET",
  "city" : "Queens",
  "geo_dist" : "28",
  "projdesc" : "FY15 RESO A ROOM CONVERSIONS/PARITTIONING",
  "name" : "J.H.S. 190 - QUEENS",
  "zip_code" : "11375",
  "buildingid" : "Q190"
}
, {
  "consttype" : "CIP",
  "award" : "579750.00",
  "boro" : "Q",
  "building_address" : "85-15 258 STREET",
  "city" : "Queens",
  "geo_dist" : "26",
  "projdesc" : "LIGHTING REPLACEMENT",
  "name" : "P.S. 191 - QUEENS",
  "zip_code" : "11001",
  "buildingid" : "Q191"
}
, {
  "consttype" : "CIP",
  "award" : "737000.00",
  "boro" : "Q",
  "building_address" : "152-20 11 AVENUE",
  "city" : "Queens",
  "geo_dist" : "25",
  "projdesc" : "WATER PENETRATION",
  "name" : "P.S. 193 - QUEENS",
  "zip_code" : "11357",
  "buildingid" : "Q193"
}
, {
  "consttype" : "CIP",
  "award" : "239900.00",
  "boro" : "Q",
  "building_address" : "154-60 17 AVENUE",
  "city" : "Queens",
  "geo_dist" : "25",
  "projdesc" : "FY16 RESO A LIBRARY UPGRADE",
  "name" : "J.H.S. 194 - QUEENS",
  "zip_code" : "11357",
  "buildingid" : "Q194"
}
, {
  "consttype" : "CIP",
  "award" : "6795000.00",
  "boro" : "Q",
  "building_address" : "154-60 17 AVENUE",
  "city" : "Queens",
  "geo_dist" : "25",
  "projdesc" : "PLANYC BOILER CNVRSN/PLANYC CLIMATE CTRL",
  "name" : "J.H.S. 194 - QUEENS",
  "zip_code" : "11357",
  "buildingid" : "Q194"
}
, {
  "consttype" : "CIP",
  "award" : "999786.00",
  "boro" : "Q",
  "building_address" : "71-25 113 STREET",
  "city" : "Queens",
  "geo_dist" : "28",
  "projdesc" : "FY12 RESO A AUDITORIUM UPGRADE",
  "name" : "P.S. 196 - QUEENS",
  "zip_code" : "11375",
  "buildingid" : "Q196"
}
, {
  "consttype" : "CIP",
  "award" : "1278870.32",
  "boro" : "Q",
  "building_address" : "3-65 BEACH 56 STREET",
  "city" : "Queens",
  "geo_dist" : "27",
  "projdesc" : "NEW A/C CHILLERS",
  "name" : "P.S. 333 - QUEENS",
  "zip_code" : "11692",
  "buildingid" : "Q198"
}
, {
  "consttype" : "CIP",
  "award" : "12990000.00",
  "boro" : "Q",
  "building_address" : "3-65 BEACH 56 STREET",
  "city" : "Queens",
  "geo_dist" : "27",
  "projdesc" : "REINFORCING/HEATING PLT/ELEC/FLOOD ELIM/CLIMATE CO",
  "name" : "P.S. 333 - QUEENS",
  "zip_code" : "11692",
  "buildingid" : "Q198"
}
, {
  "consttype" : "CIP",
  "award" : "790797.00",
  "boro" : "Q",
  "building_address" : "75-25 BELL BLVD",
  "city" : "Queens",
  "geo_dist" : "26",
  "projdesc" : "LIGHTING REPLACEMENT",
  "name" : "P.S. 205 - QUEENS",
  "zip_code" : "11364",
  "buildingid" : "Q205"
}
, {
  "consttype" : "CIP",
  "award" : "6786000.00",
  "boro" : "Q",
  "building_address" : "31-15 140 STREET",
  "city" : "Queens",
  "geo_dist" : "25",
  "projdesc" : "PARAPETS/FLOOD/EXT MASONRY/ROOFS",
  "name" : "P.S. 214 - QUEENS",
  "zip_code" : "11354",
  "buildingid" : "Q214"
}
, {
  "consttype" : "CIP",
  "award" : "1213000.00",
  "boro" : "Q",
  "building_address" : "535 BRIAR PLACE",
  "city" : "Queens",
  "geo_dist" : "27",
  "projdesc" : "FIRE ALARM",
  "name" : "P.S. 215 - QUEENS",
  "zip_code" : "11691",
  "buildingid" : "Q215"
}
, {
  "consttype" : "CIP",
  "award" : "417473.00",
  "boro" : "Q",
  "building_address" : "85-05 144 STREET",
  "city" : "Queens",
  "geo_dist" : "28",
  "projdesc" : "FY15 RESO A SCIENCE LAB UPGRADE",
  "name" : "I.S. 217 - QUEENS",
  "zip_code" : "11435",
  "buildingid" : "Q217"
}
, {
  "consttype" : "CIP",
  "award" : "4565000.00",
  "boro" : "Q",
  "building_address" : "125-20 SUTPHIN BLVD",
  "city" : "Queens",
  "geo_dist" : "27",
  "projdesc" : "WINDOWS/EXT MASONRY/PARAPETS",
  "name" : "P.S. 223 - QUEENS",
  "zip_code" : "11434",
  "buildingid" : "Q223"
}
, {
  "consttype" : "CIP",
  "award" : "6339000.00",
  "boro" : "Q",
  "building_address" : "1-90 BEACH 110 STREET",
  "city" : "Queens",
  "geo_dist" : "27",
  "projdesc" : "SANDY: HEAT/FLOOD/ELEC/INTERIOR/NON-SANDY: CLIMATE",
  "name" : "P.S. 317 - QUEENS",
  "zip_code" : "11694",
  "buildingid" : "Q225"
}
, {
  "consttype" : "CIP",
  "award" : "1054000.00",
  "boro" : "Q",
  "building_address" : "121-10 ROCKAWAY BOULEVARD",
  "city" : "Queens",
  "geo_dist" : "27",
  "projdesc" : "PUBLIC ADDRESS SYSTEM",
  "name" : "I.S. 226 - QUEENS",
  "zip_code" : "11420",
  "buildingid" : "Q226"
}
, {
  "consttype" : "CIP",
  "award" : "3960000.00",
  "boro" : "Q",
  "building_address" : "121-10 ROCKAWAY BOULEVARD",
  "city" : "Queens",
  "geo_dist" : "27",
  "projdesc" : "TCU REMOVAL AND PLAYGROUND REDEVELOPMENT",
  "name" : "I.S. 226 - QUEENS",
  "zip_code" : "11420",
  "buildingid" : "Q226"
}
, {
  "consttype" : "CIP",
  "award" : "983000.00",
  "boro" : "Q",
  "building_address" : "29-66 137TH STREET",
  "city" : "Queens",
  "geo_dist" : "25",
  "projdesc" : "FLOOD ELIMINATION/ROOFING",
  "name" : "P.S. 242 - QUEENS",
  "zip_code" : "11354",
  "buildingid" : "Q242"
}
, {
  "consttype" : "CIP",
  "award" : "5347000.00",
  "boro" : "Q",
  "building_address" : "233-15 MERRICK BLVD",
  "city" : "Queens",
  "geo_dist" : "29",
  "projdesc" : "DEFECTIVE PARAPETS/EXT MASONRY/ROOFS",
  "name" : "P.S. / I.S. 270 - QUEENS",
  "zip_code" : "11422",
  "buildingid" : "Q270"
}
, {
  "consttype" : "CIP",
  "award" : "1682000.00",
  "boro" : "Q",
  "building_address" : "156-10 BAISLEY BLVD",
  "city" : "Queens",
  "geo_dist" : "27",
  "projdesc" : "RENEWAL SCHOOL BASED HEALTH CENTER",
  "name" : "AUGUST MARTIN HS - QUEENS",
  "zip_code" : "11434",
  "buildingid" : "Q400"
}
, {
  "consttype" : "CIP",
  "award" : "853000.00",
  "boro" : "Q",
  "building_address" : "32-24 CORPORAL KENNEDY STREET",
  "city" : "Queens",
  "geo_dist" : "26",
  "projdesc" : "TCU REMOVAL/PLAYGROUND REDEVELOPMENT",
  "name" : "BAYSIDE HIGH SCHOOL - QUEENS",
  "zip_code" : "11361",
  "buildingid" : "Q405"
}
, {
  "consttype" : "CIP",
  "award" : "8947000.00",
  "boro" : "Q",
  "building_address" : "100-00 BEACH CHANNEL DRIVE",
  "city" : "Queens",
  "geo_dist" : "27",
  "projdesc" : "SANDY FIRE ALARM/SANDY PA SYSTEM",
  "name" : "BEACH CHANNEL HS - QUEENS",
  "zip_code" : "11694",
  "buildingid" : "Q410"
}
, {
  "consttype" : "CIP",
  "award" : "22190800.00",
  "boro" : "Q",
  "building_address" : "100-00 BEACH CHANNEL DRIVE",
  "city" : "Queens",
  "geo_dist" : "27",
  "projdesc" : "SANDY:HEATING/ELEC/FLOOD/CLIMATE/PIPING/INT/GENERA",
  "name" : "BEACH CHANNEL HS - QUEENS",
  "zip_code" : "11694",
  "buildingid" : "Q410"
}
, {
  "consttype" : "CIP",
  "award" : "2997608.56",
  "boro" : "Q",
  "building_address" : "100-00 BEACH CHANNEL DRIVE",
  "city" : "Queens",
  "geo_dist" : "27",
  "projdesc" : "SANDY REPAIRS-ATHLETIC FIELD",
  "name" : "BEACH CHANNEL HS - QUEENS",
  "zip_code" : "11694",
  "buildingid" : "Q411"
}
, {
  "consttype" : "CIP",
  "award" : "7897628.00",
  "boro" : "Q",
  "building_address" : "57-00 223 STREET",
  "city" : "Queens",
  "geo_dist" : "26",
  "projdesc" : "ATHLETIC FIELDS/TCU REMOVAL & PLAYGROUND REDEVELOP",
  "name" : "BENJAMIN N. CARDOZO HS - QUEEN",
  "zip_code" : "11364",
  "buildingid" : "Q415"
}
, {
  "consttype" : "CIP",
  "award" : "336289.00",
  "boro" : "Q",
  "building_address" : "57-00 223 STREET",
  "city" : "Queens",
  "geo_dist" : "26",
  "projdesc" : "WATER PENETRATION THROUGH FOUNDATION",
  "name" : "BENJAMIN N. CARDOZO HS - QUEEN",
  "zip_code" : "11364",
  "buildingid" : "Q415"
}
, {
  "consttype" : "CIP",
  "award" : "6980000.00",
  "boro" : "Q",
  "building_address" : "143-10 SPRINGFIELD BLVD",
  "city" : "Queens",
  "geo_dist" : "29",
  "projdesc" : "EXT MASONRY/ROOFS/PAVED AREA-CONCRETE",
  "name" : "EXCELSIOR PREP HIGH SCHOOL - Q",
  "zip_code" : "11413",
  "buildingid" : "Q420"
}
, {
  "consttype" : "CIP",
  "award" : "8743648.00",
  "boro" : "Q",
  "building_address" : "143-10 SPRINGFIELD BLVD",
  "city" : "Queens",
  "geo_dist" : "29",
  "projdesc" : "REPAVING PARKING LOT",
  "name" : "PREPARATORY ACADEMY FOR WRITER",
  "zip_code" : "11413",
  "buildingid" : "Q421"
}
, {
  "consttype" : "CIP",
  "award" : "1469000.00",
  "boro" : "Q",
  "building_address" : "58-20 UTOPIA PKWY",
  "city" : "Queens",
  "geo_dist" : "26",
  "projdesc" : "WATER PENETRATION",
  "name" : "FRANCIS LEWIS HS - QUEENS",
  "zip_code" : "11365",
  "buildingid" : "Q430"
}
, {
  "consttype" : "CIP",
  "award" : "3463000.00",
  "boro" : "Q",
  "building_address" : "67-01 110 STREET",
  "city" : "Queens",
  "geo_dist" : "28",
  "projdesc" : "CONCRETE PAVED AREAS",
  "name" : "FOREST HILLS H.S.",
  "zip_code" : "11375",
  "buildingid" : "Q440"
}
, {
  "consttype" : "CIP",
  "award" : "6484000.00",
  "boro" : "Q",
  "building_address" : "67-01 110 STREET",
  "city" : "Queens",
  "geo_dist" : "28",
  "projdesc" : "CONCRETE RETAINING WALL",
  "name" : "FOREST HILLS HS - QUEENS",
  "zip_code" : "11375",
  "buildingid" : "Q441"
}
, {
  "consttype" : "CIP",
  "award" : "2499000.00",
  "boro" : "Q",
  "building_address" : "48-10 31 AVENUE",
  "city" : "Queens",
  "geo_dist" : "30",
  "projdesc" : "TCU REMOVAL & PLAYGROUND REDEVELOPMENT",
  "name" : "WILLIAM C. BRYANT HS - QUEENS",
  "zip_code" : "11103",
  "buildingid" : "Q445"
}
, {
  "consttype" : "CIP",
  "award" : "18432800.00",
  "boro" : "Q",
  "building_address" : "14-30 BROADWAY",
  "city" : "Queens",
  "geo_dist" : "30",
  "projdesc" : "FIRE ALARM SYSTEM/BUILDING MGMT SYSTEM",
  "name" : "LONG ISLAND CITY HS - Q",
  "zip_code" : "11106",
  "buildingid" : "Q452"
}
, {
  "consttype" : "CIP",
  "award" : "451000.00",
  "boro" : "Q",
  "building_address" : "35-01 UNION STREET",
  "city" : "Queens",
  "geo_dist" : "25",
  "projdesc" : "FY15 RESO A AUDITORIUM UPGRADE",
  "name" : "FLUSHING HS - QUEENS",
  "zip_code" : "11354",
  "buildingid" : "Q460"
}
, {
  "consttype" : "CIP",
  "award" : "17941252.00",
  "boro" : "Q",
  "building_address" : "45-30 36 STREET",
  "city" : "Queens",
  "geo_dist" : "24",
  "projdesc" : "FUEL FIRE/ROOFS/PARAPETS/MASONRY/FLOOD/GYM UPG/WIN",
  "name" : "AVIATION HS - QUEENS",
  "zip_code" : "11101",
  "buildingid" : "Q610"
}
, {
  "consttype" : "CIP",
  "award" : "146000.00",
  "boro" : "Q",
  "building_address" : "45-30 36 STREET",
  "city" : "Queens",
  "geo_dist" : "24",
  "projdesc" : "FY16 RESO A ROOM CONVERSIONS / PART",
  "name" : "AVIATION HS - QUEENS",
  "zip_code" : "11101",
  "buildingid" : "Q610"
}
, {
  "consttype" : "CIP",
  "award" : "378700.00",
  "boro" : "Q",
  "building_address" : "41-15 104 STREET",
  "city" : "Queens",
  "geo_dist" : "24",
  "projdesc" : "FY15 RESO A AUDITORIUM UPGRADE",
  "name" : "P.S. 16 - QUEENS",
  "zip_code" : "11368",
  "buildingid" : "Q721"
}
, {
  "consttype" : "CIP",
  "award" : "160113.00",
  "boro" : "Q",
  "building_address" : "57-12 94TH STREET",
  "city" : "Queens",
  "geo_dist" : "24",
  "projdesc" : "FY16 RESO A AUDITORIUM UPGRADE",
  "name" : "Q721 SPED - QUEENS",
  "zip_code" : "11373",
  "buildingid" : "Q722"
}
, {
  "consttype" : "CIP",
  "award" : "2482000.00",
  "boro" : "Q",
  "building_address" : "180 BEACH 35 STREET",
  "city" : "Queens",
  "geo_dist" : "27",
  "projdesc" : "DEMOLITION & PAVED AREA/TCU REMOVAL PLAYGROUND RED",
  "name" : "P.S. 106 - QUEENS",
  "zip_code" : "11691",
  "buildingid" : "Q806"
}
, {
  "consttype" : "CIP",
  "award" : "747000.00",
  "boro" : "Q",
  "building_address" : "61-25 MARATHON PKWY",
  "city" : "Queens",
  "geo_dist" : "26",
  "projdesc" : "LL 41/16 COMPLIANCE",
  "name" : "Q811 SPED - QUEENS",
  "zip_code" : "11362",
  "buildingid" : "Q811"
}
, {
  "consttype" : "CIP",
  "award" : "497898.00",
  "boro" : "Q",
  "building_address" : "103-22 99TH STREET",
  "city" : "Queens",
  "geo_dist" : "27",
  "projdesc" : "FY16RESO A LIBRARY UPGRADE",
  "name" : "P.S. 65 - QUEENS",
  "zip_code" : "11417",
  "buildingid" : "Q884"
}
, {
  "consttype" : "CIP",
  "award" : "3290000.00",
  "boro" : "Q",
  "building_address" : "12 MARVIN STREET",
  "city" : "Queens",
  "geo_dist" : "27",
  "projdesc" : "SANDY INTERIOR SPACES/SANDY FLOOD ELIMINATION",
  "name" : "P.S. 43 - QUEENS",
  "zip_code" : "11691",
  "buildingid" : "Q907"
}
, {
  "consttype" : "CIP",
  "award" : "11891000.00",
  "boro" : "R",
  "building_address" : "58 SUMMIT STREET",
  "city" : "Staten Island",
  "geo_dist" : "31",
  "projdesc" : "EXTERIOR MASONRY/PARAPETS/ROOFS/WINDOWS",
  "name" : "P.S. 1 - STATEN ISLAND",
  "zip_code" : "10307",
  "buildingid" : "R001"
}
, {
  "consttype" : "CIP",
  "award" : "212500.00",
  "boro" : "R",
  "building_address" : "1270 HUGUENOT AVENUE",
  "city" : "Staten Island",
  "geo_dist" : "31",
  "projdesc" : "FY16 RESO A ROOM CONVERSIONS / PART",
  "name" : "I.S. 7 - STATEN ISLAND",
  "zip_code" : "10312",
  "buildingid" : "R007"
}
, {
  "consttype" : "CIP",
  "award" : "235200.00",
  "boro" : "R",
  "building_address" : "100 TOMPKINS AVENUE",
  "city" : "Staten Island",
  "geo_dist" : "31",
  "projdesc" : "FY16 RESO A AUDITORIUM UPGRADE",
  "name" : "P.S. 078 - STATEN ISLAND",
  "zip_code" : "10304",
  "buildingid" : "R014"
}
, {
  "consttype" : "CIP",
  "award" : "4814365.81",
  "boro" : "R",
  "building_address" : "780 POST AVENUE",
  "city" : "Staten Island",
  "geo_dist" : "31",
  "projdesc" : "PARAPETS/FLOOD/AREAWAY WINDOWS/EXT MASONRY",
  "name" : "P.S. 19 - STATEN ISLAND",
  "zip_code" : "10310",
  "buildingid" : "R019"
}
, {
  "consttype" : "CIP",
  "award" : "3790030.00",
  "boro" : "R",
  "building_address" : "1581 VICTORY BLVD",
  "city" : "Staten Island",
  "geo_dist" : "31",
  "projdesc" : "EXTERIOR MASONRY/ROOFS/PARAPETS",
  "name" : "P.S. 29 - STATEN ISLAND",
  "zip_code" : "10314",
  "buildingid" : "R029"
}
, {
  "consttype" : "CIP",
  "award" : "534941.00",
  "boro" : "R",
  "building_address" : "200 WARDWELL AVE",
  "city" : "Staten Island",
  "geo_dist" : "31",
  "projdesc" : "FY16 RESO A LOW-VOLTAGE ELECTRICAL SYSTEM",
  "name" : "P.S. 30 - STATEN ISLAND",
  "zip_code" : "10314",
  "buildingid" : "R030"
}
, {
  "consttype" : "CIP",
  "award" : "11177000.00",
  "boro" : "R",
  "building_address" : "528 ACADEMY AVE",
  "city" : "Staten Island",
  "geo_dist" : "31",
  "projdesc" : "FULL PROGRAM ACCESSIBILITY/FIRE ALARM SYSTEM",
  "name" : "I.S. 34 - STATEN ISLAND",
  "zip_code" : "10307",
  "buildingid" : "R034"
}
, {
  "consttype" : "CIP",
  "award" : "1280000.00",
  "boro" : "R",
  "building_address" : "60 FOOTE AVENUE",
  "city" : "Staten Island",
  "geo_dist" : "31",
  "projdesc" : "FY14 RESO A ATHLETIC FIELDS",
  "name" : "P.S. 35 - STATEN ISLAND",
  "zip_code" : "10301",
  "buildingid" : "R035"
}
, {
  "consttype" : "CIP",
  "award" : "3738000.00",
  "boro" : "R",
  "building_address" : "60 FOOTE AVENUE",
  "city" : "Staten Island",
  "geo_dist" : "31",
  "projdesc" : "HEATING PLANT/CLIMATE CONTROL",
  "name" : "P.S. 35 - STATEN ISLAND",
  "zip_code" : "10301",
  "buildingid" : "R035"
}
, {
  "consttype" : "CIP",
  "award" : "1649000.00",
  "boro" : "R",
  "building_address" : "216 CLAWSON STREET",
  "city" : "Staten Island",
  "geo_dist" : "31",
  "projdesc" : "MAIN ELECTRICAL SERVICE/LOW VOLTAGE ELEC SYSTEM",
  "name" : "P.S. 41 - STATEN ISLAND",
  "zip_code" : "10306",
  "buildingid" : "R041"
}
, {
  "consttype" : "CIP",
  "award" : "2923000.00",
  "boro" : "R",
  "building_address" : "100 ESSEX DRIVE",
  "city" : "Staten Island",
  "geo_dist" : "31",
  "projdesc" : "PLAYGROUND REDEVELOPMENT",
  "name" : "CSI HS FOR INTERNATIONAL STUDI",
  "zip_code" : "10314",
  "buildingid" : "R043"
}
, {
  "consttype" : "CIP",
  "award" : "9777000.00",
  "boro" : "R",
  "building_address" : "80 MAPLE PARKWAY",
  "city" : "Staten Island",
  "geo_dist" : "31",
  "projdesc" : "EXTERIOR MASONRY/PARAPETS/ROOFS/WINDOWS",
  "name" : "P.S. 44 - STATEN ISLAND",
  "zip_code" : "10303",
  "buildingid" : "R044"
}
, {
  "consttype" : "CIP",
  "award" : "1270000.00",
  "boro" : "R",
  "building_address" : "80 MAPLE PARKWAY",
  "city" : "Staten Island",
  "geo_dist" : "31",
  "projdesc" : "REPAIR-CERTIFICATE OF OCCUPANCY",
  "name" : "P.S. 44 - STATEN ISLAND",
  "zip_code" : "10303",
  "buildingid" : "R044"
}
, {
  "consttype" : "CIP",
  "award" : "11349891.00",
  "boro" : "R",
  "building_address" : "58 LAWRENCE AVENUE",
  "city" : "Staten Island",
  "geo_dist" : "31",
  "projdesc" : "ROOFS/PARAPETS /EXTERIOR MASONRY/FLOOD ELIMINATION",
  "name" : "P.S. 45 - STATEN ISLAND",
  "zip_code" : "10310",
  "buildingid" : "R045"
}
, {
  "consttype" : "CIP",
  "award" : "464786.00",
  "boro" : "R",
  "building_address" : "1055 TARGEE STREET",
  "city" : "Staten Island",
  "geo_dist" : "31",
  "projdesc" : "RETAINING WALL",
  "name" : "P.S. 48 - STATEN ISLAND",
  "zip_code" : "10304",
  "buildingid" : "R048"
}
, {
  "consttype" : "CIP",
  "award" : "329000.00",
  "boro" : "R",
  "building_address" : "200 ADELAIDE AVENUE",
  "city" : "Staten Island",
  "geo_dist" : "31",
  "projdesc" : "FY16 RESO A PLAYGROUND REDEVELOPMEN",
  "name" : "P.S. 50 - STATEN ISLAND",
  "zip_code" : "10306",
  "buildingid" : "R050"
}
, {
  "consttype" : "CIP",
  "award" : "16941000.00",
  "boro" : "R",
  "building_address" : "450 BUEL AVENUE",
  "city" : "Staten Island",
  "geo_dist" : "31",
  "projdesc" : "REPAIR-C OF O/SANDY-FLOOD/SAFETY/HEAT/VENT/INT/ELE",
  "name" : "P.S. 52 - STATEN ISLAND",
  "zip_code" : "10305",
  "buildingid" : "R052"
}
, {
  "consttype" : "CIP",
  "award" : "184000.00",
  "boro" : "R",
  "building_address" : "33 FERNDALE AVENUE",
  "city" : "Staten Island",
  "geo_dist" : "31",
  "projdesc" : "FY16 RESO A AUDITORIUM UPGRADE",
  "name" : "I.S. 72 - STATEN ISLAND",
  "zip_code" : "10314",
  "buildingid" : "R072"
}
, {
  "consttype" : "CIP",
  "award" : "724800.00",
  "boro" : "R",
  "building_address" : "465 NEW DORP LANE",
  "city" : "Staten Island",
  "geo_dist" : "31",
  "projdesc" : "FY14 RESO A AUDITORIUM UPGRADE",
  "name" : "NEW DORP HS - STATEN ISLAND",
  "zip_code" : "10306",
  "buildingid" : "R435"
}
, {
  "consttype" : "CIP",
  "award" : "12443000.00",
  "boro" : "R",
  "building_address" : "105 HAMILTON AVENUE",
  "city" : "Staten Island",
  "geo_dist" : "31",
  "projdesc" : "BRIDGE & REPAIR WK/PARAPETS/WASTE SYS/WINDOWS/ROOF",
  "name" : "CURTIS HS - STATEN ISLAND",
  "zip_code" : "10301",
  "buildingid" : "R450"
}
, {
  "consttype" : "CIP",
  "award" : "1335000.00",
  "boro" : "R",
  "building_address" : "100 LUTEN AVENUE",
  "city" : "Staten Island",
  "geo_dist" : "31",
  "projdesc" : "FY 16 RESO A WIRING UPGRADE",
  "name" : "TOTTENVILLE HS - STATEN ISLAND",
  "zip_code" : "10312",
  "buildingid" : "R455"
}
, {
  "consttype" : "CIP",
  "award" : "226260.00",
  "boro" : "R",
  "building_address" : "290 ST MARKS PLACE",
  "city" : "Staten Island",
  "geo_dist" : "31",
  "projdesc" : "FY16 RESO A ROOM CONVERSIONS",
  "name" : "RALPH MCKEE VOC HS - S. I.",
  "zip_code" : "10301",
  "buildingid" : "R600"
}
, {
  "consttype" : "CIP",
  "award" : "220108.00",
  "boro" : "R",
  "building_address" : "715 OCEAN TERRACE",
  "city" : "Staten Island",
  "geo_dist" : "31",
  "projdesc" : "GAS SERVICE",
  "name" : "P.S. 80 - STATEN ISLAND",
  "zip_code" : "10301",
  "buildingid" : "R880"
}
, {
  "consttype" : "CIP",
  "award" : "2856387.30",
  "boro" : "R",
  "building_address" : "715 OCEAN TERRACE",
  "city" : "Staten Island",
  "geo_dist" : "31",
  "projdesc" : "PAVED AREAS",
  "name" : "P.S. 80 - STATEN ISLAND",
  "zip_code" : "10301",
  "buildingid" : "R885"
}
, {
  "consttype" : "CIP",
  "award" : "6542000.00",
  "boro" : "X",
  "building_address" : "230 EAST 183 STREET",
  "city" : "Bronx",
  "geo_dist" : "10",
  "projdesc" : "PLANYC BOILER CNVSN/PLANYC CLIMATE CTRL",
  "name" : "P.S. 9 - BRONX",
  "zip_code" : "10458",
  "buildingid" : "X009"
}
, {
  "consttype" : "CIP",
  "award" : "11840000.00",
  "boro" : "X",
  "building_address" : "811 EAST 149 STREET",
  "city" : "Bronx",
  "geo_dist" : "7",
  "projdesc" : "EXTERIOR MASONRY/PARAPETS/ROOFS/WINDOWS",
  "name" : "P.S. 25 - BRONX",
  "zip_code" : "10455",
  "buildingid" : "X025"
}
, {
  "consttype" : "CIP",
  "award" : "5386000.00",
  "boro" : "X",
  "building_address" : "1930 ANDREWS AVENUE",
  "city" : "Bronx",
  "geo_dist" : "10",
  "projdesc" : "PLANYC BOILER CNVSN/PLANYC CLIMATE CTRL",
  "name" : "P.S. 396 - BRONX",
  "zip_code" : "10453",
  "buildingid" : "X026"
}
, {
  "consttype" : "CIP",
  "award" : "6239400.00",
  "boro" : "X",
  "building_address" : "690 EAST 183 STREET",
  "city" : "Bronx",
  "geo_dist" : "10",
  "projdesc" : "EXTERIOR MASONRY/WINDOWS/PARAPETS",
  "name" : "P.S. 32 - BRONX",
  "zip_code" : "10458",
  "buildingid" : "X032"
}
, {
  "consttype" : "CIP",
  "award" : "4829000.00",
  "boro" : "X",
  "building_address" : "2424 JEROME AVENUE",
  "city" : "Bronx",
  "geo_dist" : "10",
  "projdesc" : "PLANYC BOILER CNVSN/PLANYC CLIMATE CTRL",
  "name" : "P.S. 33 - BRONX",
  "zip_code" : "10468",
  "buildingid" : "X033"
}
, {
  "consttype" : "CIP",
  "award" : "12843000.00",
  "boro" : "X",
  "building_address" : "1070 CASTLE HILL AVENUE",
  "city" : "Bronx",
  "geo_dist" : "8",
  "projdesc" : "EXT MASONRY/ROOFS/PARAPETS/WINDOWS/EXT DOORS/FLOOD",
  "name" : "P.S. 36 - BRONX",
  "zip_code" : "10472",
  "buildingid" : "X036"
}
, {
  "consttype" : "CIP",
  "award" : "9142000.00",
  "boro" : "X",
  "building_address" : "1794 EAST 172 STREET",
  "city" : "Bronx",
  "geo_dist" : "12",
  "projdesc" : "ROOFS/PARAPETS/MASONRY/FLOOD",
  "name" : "P.S. 47 - BRONX",
  "zip_code" : "10472",
  "buildingid" : "X047"
}
, {
  "consttype" : "CIP",
  "award" : "9100000.00",
  "boro" : "X",
  "building_address" : "1290 SPOFFORD AVENUE",
  "city" : "Bronx",
  "geo_dist" : "8",
  "projdesc" : "FULL ACCESSIBILITY",
  "name" : "P.S. 48 - BRONX",
  "zip_code" : "10474",
  "buildingid" : "X048"
}
, {
  "consttype" : "CIP",
  "award" : "1794786.00",
  "boro" : "X",
  "building_address" : "1001 JENNINGS STREET",
  "city" : "Bronx",
  "geo_dist" : "12",
  "projdesc" : "RENEWAL SCHOOL BASED HEALTH CENTER",
  "name" : "P.S. 66 - BRONX",
  "zip_code" : "10460",
  "buildingid" : "X066"
}
, {
  "consttype" : "CIP",
  "award" : "6431300.00",
  "boro" : "X",
  "building_address" : "1691 WEEKS AVENUE",
  "city" : "Bronx",
  "geo_dist" : "9",
  "projdesc" : "EXT MASONRY/ROOFS/PARAPETS",
  "name" : "P.S. 70 - BRONX",
  "zip_code" : "10457",
  "buildingid" : "X070"
}
, {
  "consttype" : "CIP",
  "award" : "399000.00",
  "boro" : "X",
  "building_address" : "730 BRYANT AVENUE",
  "city" : "Bronx",
  "geo_dist" : "8",
  "projdesc" : "DEFECTIVE RETAINING WALL",
  "name" : "I.S. 424 - BRONX",
  "zip_code" : "10474",
  "buildingid" : "X074"
}
, {
  "consttype" : "CIP",
  "award" : "2583000.00",
  "boro" : "X",
  "building_address" : "149 EAST MOSHOLU PKWY N",
  "city" : "Bronx",
  "geo_dist" : "10",
  "projdesc" : "ACCESSIBILITY",
  "name" : "I.S. 80 - BRONX",
  "zip_code" : "10467",
  "buildingid" : "X080"
}
, {
  "consttype" : "CIP",
  "award" : "3147559.00",
  "boro" : "X",
  "building_address" : "5550 RIVERDALE AVENUE",
  "city" : "Bronx",
  "geo_dist" : "10",
  "projdesc" : "WINDOW/ROOFS/EXT MASONRY/FLOOD",
  "name" : "P.S. 81 - BRONX",
  "zip_code" : "10471",
  "buildingid" : "X081"
}
, {
  "consttype" : "CIP",
  "award" : "8819000.00",
  "boro" : "X",
  "building_address" : "1700 MACOMBS ROAD",
  "city" : "Bronx",
  "geo_dist" : "9",
  "projdesc" : "OIL VAULT & STAIRWAY/PIPING/TOILETS/FLOOD",
  "name" : "I.S. 232 - BRONX",
  "zip_code" : "10453",
  "buildingid" : "X082"
}
, {
  "consttype" : "CIP",
  "award" : "5677330.00",
  "boro" : "X",
  "building_address" : "3710 BARNES AVENUE",
  "city" : "Bronx",
  "geo_dist" : "11",
  "projdesc" : "FUEL OIL TANK LEAKAGE/CLIMATE CTRL",
  "name" : "I.S. 113 - BRONX",
  "zip_code" : "10467",
  "buildingid" : "X113"
}
, {
  "consttype" : "CIP",
  "award" : "1950000.00",
  "boro" : "X",
  "building_address" : "1025 MORRISON AVENUE",
  "city" : "Bronx",
  "geo_dist" : "8",
  "projdesc" : "RENEWAL SCHOOL BASED HEALTH CENTER",
  "name" : "I.S. 123 - BRONX",
  "zip_code" : "10472",
  "buildingid" : "X123"
}
, {
  "consttype" : "CIP",
  "award" : "1300019.00",
  "boro" : "X",
  "building_address" : "1111 PUGSLEY AVENUE",
  "city" : "Bronx",
  "geo_dist" : "8",
  "projdesc" : "LIGHTING REPLACEMENT (DCAS)",
  "name" : "I.S. 125 - BRONX",
  "zip_code" : "10472",
  "buildingid" : "X125"
}
, {
  "consttype" : "CIP",
  "award" : "2787000.00",
  "boro" : "X",
  "building_address" : "2441 WALLACE AVENUE",
  "city" : "Bronx",
  "geo_dist" : "11",
  "projdesc" : "PERMANENT REPAIRS (CEILING TILES)",
  "name" : "I.S. 322 - BRONX",
  "zip_code" : "10467",
  "buildingid" : "X135"
}
, {
  "consttype" : "CIP",
  "award" : "11642000.00",
  "boro" : "X",
  "building_address" : "750 JENNINGS STREET",
  "city" : "Bronx",
  "geo_dist" : "12",
  "projdesc" : "PARAPET/FLOOD ELIM/EXT MASONRY/ROOFS",
  "name" : "X186 SPED - BRONX",
  "zip_code" : "10459",
  "buildingid" : "X136"
}
, {
  "consttype" : "CIP",
  "award" : "2068500.00",
  "boro" : "X",
  "building_address" : "2225 WEBSTER AVENUE",
  "city" : "Bronx",
  "geo_dist" : "10",
  "projdesc" : "RENEWAL SBHC",
  "name" : "I.S. 391 - BRONX",
  "zip_code" : "10457",
  "buildingid" : "X137"
}
, {
  "consttype" : "CIP",
  "award" : "4745900.00",
  "boro" : "X",
  "building_address" : "120 WEST 231 STREET",
  "city" : "Bronx",
  "geo_dist" : "10",
  "projdesc" : "ACCESS RAMP & WALL/FLOOD/ROOFS/PARAPETS",
  "name" : "I.S. 244 - BRONX",
  "zip_code" : "10463",
  "buildingid" : "X143"
}
, {
  "consttype" : "CIP",
  "award" : "5423000.00",
  "boro" : "X",
  "building_address" : "2545 GUNTHER AVENUE",
  "city" : "Bronx",
  "geo_dist" : "11",
  "projdesc" : "PLANYC BOILER CONVERSION/CLIMATE CONTROL",
  "name" : "I.S. 144 - BRONX",
  "zip_code" : "10469",
  "buildingid" : "X144"
}
, {
  "consttype" : "CIP",
  "award" : "653815.00",
  "boro" : "X",
  "building_address" : "1000 TELLER AVENUE",
  "city" : "Bronx",
  "geo_dist" : "9",
  "projdesc" : "REPAIR SINK HOLE",
  "name" : "I.S. 145 - BRONX",
  "zip_code" : "10456",
  "buildingid" : "X145"
}
, {
  "consttype" : "CIP",
  "award" : "1920000.00",
  "boro" : "X",
  "building_address" : "1600 WEBSTER AVENUE",
  "city" : "Bronx",
  "geo_dist" : "9",
  "projdesc" : "RENEWAL SCHOOL BASED HEALTH CENTER",
  "name" : "I.S. 339 - BRONX",
  "zip_code" : "10457",
  "buildingid" : "X147"
}
, {
  "consttype" : "CIP",
  "award" : "2889000.00",
  "boro" : "X",
  "building_address" : "250 EAST 164 STREET",
  "city" : "Bronx",
  "geo_dist" : "9",
  "projdesc" : "SCIENCE LAB UPGRADE",
  "name" : "BRONX EARLY COLLEGE ACADEMY",
  "zip_code" : "10456",
  "buildingid" : "X166"
}
, {
  "consttype" : "CIP",
  "award" : "2589000.00",
  "boro" : "X",
  "building_address" : "1871 WALTON AVENUE",
  "city" : "Bronx",
  "geo_dist" : "9",
  "projdesc" : "FALLING COPING STONES/EXT MASONRY",
  "name" : "P.S. 236 - BRONX",
  "zip_code" : "10453",
  "buildingid" : "X173"
}
, {
  "consttype" : "CIP",
  "award" : "470000.00",
  "boro" : "X",
  "building_address" : "456 WHITE PLAINS ROAD",
  "city" : "Bronx",
  "geo_dist" : "8",
  "projdesc" : "PAVED AREAS-CONCRETE",
  "name" : "BRONX MATH PREP - BRONX",
  "zip_code" : "10473",
  "buildingid" : "X174"
}
, {
  "consttype" : "CIP",
  "award" : "1915000.00",
  "boro" : "X",
  "building_address" : "1180 TINTON AVENUE",
  "city" : "Bronx",
  "geo_dist" : "12",
  "projdesc" : "RENEWAL SBHC",
  "name" : "P.S. 212 - BRONX",
  "zip_code" : "10456",
  "buildingid" : "X198"
}
, {
  "consttype" : "CIP",
  "award" : "14230000.00",
  "boro" : "X",
  "building_address" : "275 HARLEM RIVER PARK BRIDGE",
  "city" : "Bronx",
  "geo_dist" : "9",
  "projdesc" : "SEWAGE LEAK/FIRE SYS SPRINKLER/CRACKED CONCRETE/FA",
  "name" : "P.S. 230 - BRONX",
  "zip_code" : "10453",
  "buildingid" : "X229"
}
, {
  "consttype" : "CIP",
  "award" : "3600000.00",
  "boro" : "X",
  "building_address" : "2452 WASHINGTON AVENUE",
  "city" : "Bronx",
  "geo_dist" : "10",
  "projdesc" : "FACADE/ROOFS",
  "name" : "I.S. 254 - BRONX",
  "zip_code" : "10458",
  "buildingid" : "X254"
}
, {
  "consttype" : "CIP",
  "award" : "5229000.00",
  "boro" : "X",
  "building_address" : "1110 BOSTON RD",
  "city" : "Bronx",
  "geo_dist" : "9",
  "projdesc" : "CERTIFICATE OF OCCUPANCY",
  "name" : "MORRIS H.S.",
  "zip_code" : "10456",
  "buildingid" : "X400"
}
, {
  "consttype" : "CIP",
  "award" : "29723000.00",
  "boro" : "X",
  "building_address" : "3000 EAST TREMONT AVENUE",
  "city" : "Bronx",
  "geo_dist" : "11",
  "projdesc" : "SANDY ELEC/HEAT/FLOOD/CLIM/SINK HOLES/PLUMBING",
  "name" : "HERBERT H. LEHMAN HS - X",
  "zip_code" : "10461",
  "buildingid" : "X405"
}
, {
  "consttype" : "CIP",
  "award" : "5577000.00",
  "boro" : "X",
  "building_address" : "925 ASTOR AVENUE",
  "city" : "Bronx",
  "geo_dist" : "11",
  "projdesc" : "PARAPETS/ROOFS/EXT MASONRY",
  "name" : "CHRISTOPHER COLUMBUS HS - X",
  "zip_code" : "10469",
  "buildingid" : "X415"
}
, {
  "consttype" : "CIP",
  "award" : "8511800.00",
  "boro" : "X",
  "building_address" : "1300 BOYNTON AVENUE",
  "city" : "Bronx",
  "geo_dist" : "12",
  "projdesc" : "BOILER/CLIMATE CONTROL/WATER INFILTRATION",
  "name" : "MONROE ACAD FOR VISUAL ARTS -",
  "zip_code" : "10472",
  "buildingid" : "X420"
}
, {
  "consttype" : "CIP",
  "award" : "190000.00",
  "boro" : "X",
  "building_address" : "2780 RESERVOIR AVENUE",
  "city" : "Bronx",
  "geo_dist" : "10",
  "projdesc" : "FY16 RESO A RETRACTABLE WALL",
  "name" : "KINGSBRIDGE INTERNATIONAL HS -",
  "zip_code" : "10468",
  "buildingid" : "X430"
}
, {
  "consttype" : "CIP",
  "award" : "2152000.00",
  "boro" : "X",
  "building_address" : "2780 RESERVOIR AVENUE",
  "city" : "Bronx",
  "geo_dist" : "10",
  "projdesc" : "BOILER FOR SWIMMING",
  "name" : "M.S./H.S. 342 - BRONX",
  "zip_code" : "10468",
  "buildingid" : "X430"
}
, {
  "consttype" : "CIP",
  "award" : "50553000.00",
  "boro" : "X",
  "building_address" : "500 EAST FORDHAM ROAD",
  "city" : "Bronx",
  "geo_dist" : "10",
  "projdesc" : "ROOFS/PARAPETS/EXT MASONRY/WINDOWS",
  "name" : "I.S. 243 - BRONX",
  "zip_code" : "10458",
  "buildingid" : "X435"
}
, {
  "consttype" : "CIP",
  "award" : "27189000.00",
  "boro" : "X",
  "building_address" : "100 W MOSHOLU PKWY S",
  "city" : "Bronx",
  "geo_dist" : "10",
  "projdesc" : "EXTERIOR MASONRY/FLOOD ELIMINATION/PARAPETS/ROOF",
  "name" : "DEWITT CLINTON HS - X",
  "zip_code" : "10468",
  "buildingid" : "X440"
}
, {
  "consttype" : "CIP",
  "award" : "8985000.00",
  "boro" : "X",
  "building_address" : "75 W 205 STREET",
  "city" : "Bronx",
  "geo_dist" : "10",
  "projdesc" : "ROOF REPLACEMENT/PARAPETS",
  "name" : "BRONX HS OF SCIENCE - X",
  "zip_code" : "10468",
  "buildingid" : "X445"
}
, {
  "consttype" : "CIP",
  "award" : "5547000.00",
  "boro" : "X",
  "building_address" : "99 TERRACE VIEW AVENUE",
  "city" : "Bronx",
  "geo_dist" : "10",
  "projdesc" : "SCIENCE LAB UPGRADE",
  "name" : "JOHN F. KENNEDY HS - BRONX",
  "zip_code" : "10463",
  "buildingid" : "X475"
}
, {
  "consttype" : "CIP",
  "award" : "10711000.00",
  "boro" : "X",
  "building_address" : "99 TERRACE VIEW AVENUE",
  "city" : "Bronx",
  "geo_dist" : "10",
  "projdesc" : "EXT MASONRY/SCIENCE LAB UPG/INTERIOR SPACES",
  "name" : "MARBLE HILL INTERNATIONAL HS -",
  "zip_code" : "10463",
  "buildingid" : "X475"
}
, {
  "consttype" : "CIP",
  "award" : "464500.00",
  "boro" : "X",
  "building_address" : "333 EAST 151 STREET",
  "city" : "Bronx",
  "geo_dist" : "7",
  "projdesc" : "FY16 RESO A AUDITORIUM UPGRADE",
  "name" : "ALFRED E. SMITH HS - X",
  "zip_code" : "10451",
  "buildingid" : "X600"
}
, {
  "consttype" : "CIP",
  "award" : "5390630.00",
  "boro" : "X",
  "building_address" : "2697 WESTCHESTER AVENUE",
  "city" : "Bronx",
  "geo_dist" : "11",
  "projdesc" : "PLANYC BOILER CNVRSN/PLANYC CLIMATE CTRL",
  "name" : "X721 SPED - BRONX",
  "zip_code" : "10461",
  "buildingid" : "X722"
}
, {
  "consttype" : "CIP",
  "award" : "2787000.00",
  "boro" : "X",
  "building_address" : "1950 SEDGWICK AVENUE",
  "city" : "Bronx",
  "geo_dist" : "10",
  "projdesc" : "DEFECTIVE MASONRY/ROOFS/FLOOD ELIMINATION",
  "name" : "P.S. 226 - BRONX",
  "zip_code" : "10453",
  "buildingid" : "X826"
}
, {
  "consttype" : "CIP",
  "award" : "4800000.00",
  "boro" : "X",
  "building_address" : "1910 SEDGWICK AVENUE",
  "city" : "Bronx",
  "geo_dist" : "10",
  "projdesc" : "FY08 RESO A GYM UPGRADE",
  "name" : "P.S. 226 - BRONX",
  "zip_code" : "10453",
  "buildingid" : "X827"
}
, {
  "consttype" : "CIP",
  "award" : "11448000.00",
  "boro" : "X",
  "building_address" : "2641 GRAND CONCOURSE",
  "city" : "Bronx",
  "geo_dist" : "10",
  "projdesc" : "ELEVATOR/EXT MASONRY/FLOOD/PARAPETS/ROOFS/WALL",
  "name" : "P.S. 246 - BRONX",
  "zip_code" : "10468",
  "buildingid" : "X843"
}
 ]