[ {
  "lot" : "1",
  "building_name" : "Manhattan Municipal Building",
  "borough_number" : "1",
  "building_address" : "1 Centre Street",
  "block" : "121",
  "borough" : "Manhattan",
  "state" : "New York",
  "zip_code" : "10007",
  "fuel_oil_usage_mmbtu" : "0"
}
, {
  "lot" : "1",
  "building_name" : "Staten Island Borough Hall",
  "borough_number" : "5",
  "building_address" : "10 Richmond Terrace",
  "block" : "7",
  "borough" : "Staten Island",
  "state" : "New York",
  "zip_code" : "10301",
  "fuel_oil_usage_mmbtu" : "1900.3980000000001"
}
, {
  "lot" : "1",
  "building_name" : "Manhattan Criminal Court",
  "borough_number" : "1",
  "building_address" : "100 Centre Street",
  "block" : "167",
  "borough" : "Manhattan",
  "state" : "New York",
  "zip_code" : "10013",
  "fuel_oil_usage_mmbtu" : "17678.628000000001"
}
, {
  "lot" : "25",
  "building_name" : "100 Gold",
  "borough_number" : "1",
  "building_address" : "100 Gold Street",
  "block" : "94",
  "borough" : "Manhattan",
  "state" : "New York",
  "zip_code" : "10038",
  "fuel_oil_usage_mmbtu" : "3557.2260000000001"
}
, {
  "lot" : "22",
  "building_name" : "Staten Island Family Court",
  "borough_number" : "5",
  "building_address" : "100 Richmond Terrace",
  "block" : "9",
  "borough" : "Staten Island",
  "state" : "New York",
  "zip_code" : "10301",
  "fuel_oil_usage_mmbtu" : "0"
}
, {
  "lot" : "1",
  "building_name" : "Staten Island Village Hall",
  "borough_number" : "5",
  "building_address" : "111 Canal Street",
  "block" : "523",
  "borough" : "Staten Island",
  "state" : "New York",
  "zip_code" : "10304",
  "fuel_oil_usage_mmbtu" : "0"
}
, {
  "lot" : "10",
  "building_name" : "Manhattan Civil Court",
  "borough_number" : "1",
  "building_address" : "111 Centre Street",
  "block" : "169",
  "borough" : "Manhattan",
  "state" : "New York",
  "zip_code" : "10013",
  "fuel_oil_usage_mmbtu" : "0"
}
, {
  "lot" : "39",
  "building_name" : "Bronx Housing Court",
  "borough_number" : "2",
  "building_address" : "1118 Grand Concourse",
  "block" : "2462",
  "borough" : "Manhattan",
  "state" : "New York",
  "zip_code" : "10456",
  "fuel_oil_usage_mmbtu" : "395.50800000000004"
}
, {
  "lot" : "22",
  "building_name" : "115 Chrystie",
  "borough_number" : "1",
  "building_address" : "115 Chrystie Street",
  "block" : "423",
  "borough" : "Bronx",
  "state" : "New York",
  "zip_code" : "10002",
  "fuel_oil_usage_mmbtu" : "0"
}
, {
  "lot" : "17",
  "building_name" : "Brooklyn Central Court",
  "borough_number" : "3",
  "building_address" : "120 Schermerhorn Street",
  "block" : "169",
  "borough" : "Brooklyn",
  "state" : "New York",
  "zip_code" : "11201",
  "fuel_oil_usage_mmbtu" : "0"
}
, {
  "lot" : "2",
  "building_name" : "Queens Borough Hall",
  "borough_number" : "4",
  "building_address" : "120-55 Queens Boulevard",
  "block" : "2274",
  "borough" : "Queens",
  "state" : "New York",
  "zip_code" : "11415",
  "fuel_oil_usage_mmbtu" : "8889.4080000000013"
}
, {
  "lot" : "32",
  "building_name" : "Health Building",
  "borough_number" : "1",
  "building_address" : "125 Worth Street",
  "block" : "168",
  "borough" : "Manhattan",
  "state" : "New York",
  "zip_code" : "10013",
  "fuel_oil_usage_mmbtu" : "0"
}
, {
  "lot" : "1",
  "building_name" : "Queens Criminal Court",
  "borough_number" : "4",
  "building_address" : "125-01 Queens Boulevard",
  "block" : "9653",
  "borough" : "Queens",
  "state" : "New York",
  "zip_code" : "11415",
  "fuel_oil_usage_mmbtu" : "3100.86"
}
, {
  "lot" : "70",
  "building_name" : "130 Stuyvesant",
  "borough_number" : "5",
  "building_address" : "130 Stuyvesant Place",
  "block" : "8",
  "borough" : "Staten Island",
  "state" : "New York",
  "zip_code" : "10301",
  "fuel_oil_usage_mmbtu" : "0"
}
, {
  "lot" : "17",
  "building_name" : "Excelsior Building",
  "borough_number" : "1",
  "building_address" : "137 Centre Street",
  "block" : "197",
  "borough" : "Manhattan",
  "state" : "New York",
  "zip_code" : "10013",
  "fuel_oil_usage_mmbtu" : "0"
}
, {
  "lot" : "1",
  "building_name" : "Brooklyn Navy Yard",
  "borough_number" : "3",
  "building_address" : "150 Navy Street",
  "block" : "2023",
  "borough" : "Brooklyn",
  "state" : "New York",
  "zip_code" : "11205",
  "fuel_oil_usage_mmbtu" : "0"
}
, {
  "lot" : "1",
  "building_name" : "Queens Family Court",
  "borough_number" : "4",
  "building_address" : "152-02 Jamaica Avenue",
  "block" : "10093",
  "borough" : "Queens",
  "state" : "New York",
  "zip_code" : "11432",
  "fuel_oil_usage_mmbtu" : "1400.4240000000002"
}
, {
  "lot" : "1",
  "building_name" : "Bedford Armory",
  "borough_number" : "3",
  "building_address" : "1579 Bedford Avenue",
  "block" : "1274",
  "borough" : "Brooklyn",
  "state" : "New York",
  "zip_code" : "11225",
  "fuel_oil_usage_mmbtu" : "0"
}
, {
  "lot" : "6",
  "building_name" : "OEM Building",
  "borough_number" : "3",
  "building_address" : "165 Cadman Plaza East",
  "block" : "85",
  "borough" : "Brooklyn",
  "state" : "New York",
  "zip_code" : "11201",
  "fuel_oil_usage_mmbtu" : "0"
}
, {
  "lot" : "45",
  "building_name" : "Harlem Courthouse",
  "borough_number" : "1",
  "building_address" : "170 East 121 Street",
  "block" : "1769",
  "borough" : "Manhattan",
  "state" : "New York",
  "zip_code" : "10035",
  "fuel_oil_usage_mmbtu" : "2686.7220000000002"
}
, {
  "lot" : "12",
  "building_name" : "Staten Island Supreme Court",
  "borough_number" : "5",
  "building_address" : "18 Richmond Terrace",
  "block" : "7",
  "borough" : "Staten Island",
  "state" : "New York",
  "zip_code" : "10301",
  "fuel_oil_usage_mmbtu" : "0"
}
, {
  "lot" : "18",
  "building_name" : "Bergen Building",
  "borough_number" : "2",
  "building_address" : "1932 Arthur Avenue",
  "block" : "2947",
  "borough" : "Bronx",
  "state" : "New York",
  "zip_code" : "10457",
  "fuel_oil_usage_mmbtu" : "20.59"
}
, {
  "lot" : "94",
  "building_name" : "Concourse Plaza",
  "borough_number" : "2",
  "building_address" : "198 East 161 Street",
  "block" : "2443",
  "borough" : "Bronx",
  "state" : "New York",
  "zip_code" : "10451",
  "fuel_oil_usage_mmbtu" : "0"
}
, {
  "lot" : "1",
  "building_name" : "Court Square Building",
  "borough_number" : "1",
  "building_address" : "2 Lafayette Street",
  "block" : "155",
  "borough" : "Brooklyn",
  "state" : "New York",
  "zip_code" : "10007",
  "fuel_oil_usage_mmbtu" : "0"
}
, {
  "lot" : "1",
  "building_name" : "Brooklyn Borough Hall",
  "borough_number" : "3",
  "building_address" : "209 Joralemon Street",
  "block" : "139",
  "borough" : "Brooklyn",
  "state" : "New York",
  "zip_code" : "11201",
  "fuel_oil_usage_mmbtu" : "0"
}
, {
  "lot" : "30",
  "building_name" : "Brooklyn Municipal Building",
  "borough_number" : "3",
  "building_address" : "210 Joralemon Street",
  "block" : "266",
  "borough" : "Bronx",
  "state" : "New York",
  "zip_code" : "11201",
  "fuel_oil_usage_mmbtu" : "2120.922"
}
, {
  "lot" : "1",
  "building_name" : "Bronx Family & Criminal Court",
  "borough_number" : "2",
  "building_address" : "215 East 161 Street",
  "block" : "2444",
  "borough" : "Manhattan",
  "state" : "New York",
  "zip_code" : "10451",
  "fuel_oil_usage_mmbtu" : "3346.2240000000002"
}
, {
  "lot" : "23",
  "building_name" : "City Planning Building",
  "borough_number" : "1",
  "building_address" : "22 Reade Street",
  "block" : "154",
  "borough" : "Queens",
  "state" : "New York",
  "zip_code" : "10007",
  "fuel_oil_usage_mmbtu" : "0"
}
, {
  "lot" : "1",
  "building_name" : "Long Island City Courthouse",
  "borough_number" : "4",
  "building_address" : "25-10 Court House Square",
  "block" : "83",
  "borough" : "Manhattan",
  "state" : "New York",
  "zip_code" : "11101",
  "fuel_oil_usage_mmbtu" : "952.2"
}
, {
  "lot" : "7501",
  "building_name" : "Home Life Building",
  "borough_number" : "1",
  "building_address" : "253 Broadway",
  "block" : "134",
  "borough" : "Staten Island",
  "state" : "New York",
  "zip_code" : "10007",
  "fuel_oil_usage_mmbtu" : "0"
}
, {
  "lot" : "21",
  "building_name" : "Staten Island Courthouse",
  "borough_number" : "5",
  "building_address" : "26 Central Avenue",
  "block" : "6",
  "borough" : "Bronx",
  "state" : "New York",
  "zip_code" : "10301",
  "fuel_oil_usage_mmbtu" : "0"
}
, {
  "lot" : "1",
  "building_name" : "Bronx Hall of Justice",
  "borough_number" : "2",
  "building_address" : "265 East 161 Street",
  "block" : "2454",
  "borough" : "Manhattan",
  "state" : "New York",
  "zip_code" : "10451",
  "fuel_oil_usage_mmbtu" : "1887.4260000000002"
}
, {
  "lot" : "1",
  "building_name" : "Manhattan Appellate Court",
  "borough_number" : "1",
  "building_address" : "27 Madison Avenue",
  "block" : "855",
  "borough" : "Manhattan",
  "state" : "New York",
  "zip_code" : "10010",
  "fuel_oil_usage_mmbtu" : "0"
}
, {
  "lot" : "1",
  "building_name" : "Sun Building",
  "borough_number" : "1",
  "building_address" : "280 Broadway",
  "block" : "153",
  "borough" : "Manhattan",
  "state" : "New York",
  "zip_code" : "10007",
  "fuel_oil_usage_mmbtu" : "0"
}
, {
  "lot" : "24",
  "building_name" : "Manhattan Surrogates Court",
  "borough_number" : "1",
  "building_address" : "31 Chambers Street",
  "block" : "153",
  "borough" : "Manhattan",
  "state" : "New York",
  "zip_code" : "10007",
  "fuel_oil_usage_mmbtu" : "0"
}
, {
  "lot" : "22",
  "building_name" : "Midtown Community Court",
  "borough_number" : "1",
  "building_address" : "314 West 54 Street",
  "block" : "1044",
  "borough" : "Manhattan",
  "state" : "New York",
  "zip_code" : "10019",
  "fuel_oil_usage_mmbtu" : "0"
}
, {
  "lot" : "7502",
  "building_name" : "Brooklyn Family & Supreme Court",
  "borough_number" : "3",
  "building_address" : "330 Jay Street",
  "block" : "140",
  "borough" : "Brooklyn",
  "state" : "New York",
  "zip_code" : "11201",
  "fuel_oil_usage_mmbtu" : "0"
}
, {
  "lot" : "7503",
  "building_name" : "345 Adams",
  "borough_number" : "3",
  "building_address" : "345 Adams Street",
  "block" : "140",
  "borough" : "Brooklyn",
  "state" : "New York",
  "zip_code" : "11201",
  "fuel_oil_usage_mmbtu" : "2729.2260000000001"
}
, {
  "lot" : "6",
  "building_name" : "Clock Tower Building",
  "borough_number" : "1",
  "building_address" : "346 Broadway",
  "block" : "170",
  "borough" : "Manhattan",
  "state" : "New York",
  "zip_code" : "10013",
  "fuel_oil_usage_mmbtu" : "0"
}
, {
  "lot" : "20",
  "building_name" : "Brooklyn Supreme Court",
  "borough_number" : "3",
  "building_address" : "360 Adams Street",
  "block" : "139",
  "borough" : "Brooklyn",
  "state" : "New York",
  "zip_code" : "11201",
  "fuel_oil_usage_mmbtu" : "8237.3580000000002"
}
, {
  "lot" : "1",
  "building_name" : "DCAS Shops",
  "borough_number" : "3",
  "building_address" : "390 Kent Avenue",
  "block" : "2467",
  "borough" : "Brooklyn",
  "state" : "New York",
  "zip_code" : "11211",
  "fuel_oil_usage_mmbtu" : "1847.5440000000001"
}
, {
  "lot" : "9",
  "building_name" : "Neighborhood Building",
  "borough_number" : "2",
  "building_address" : "4101 White Plains Road",
  "block" : "4832",
  "borough" : "Bronx",
  "state" : "New York",
  "zip_code" : "10466",
  "fuel_oil_usage_mmbtu" : "1269.6000000000001"
}
, {
  "lot" : "1",
  "building_name" : "Brooklyn Appellate Court",
  "borough_number" : "3",
  "building_address" : "45 Monroe Place",
  "block" : "237",
  "borough" : "Brooklyn",
  "state" : "New York",
  "zip_code" : "11201",
  "fuel_oil_usage_mmbtu" : "3164.7540000000004"
}
, {
  "lot" : "18",
  "building_name" : "Emigrant Savings Bank Building",
  "borough_number" : "1",
  "building_address" : "49-51 Chambers Street",
  "block" : "153",
  "borough" : "Manhattan",
  "state" : "New York",
  "zip_code" : "10007",
  "fuel_oil_usage_mmbtu" : "0"
}
, {
  "lot" : "1",
  "building_name" : "Tweed Courthouse",
  "borough_number" : "1",
  "building_address" : "52 Chambers Street",
  "block" : "122",
  "borough" : "Manhattan",
  "state" : "New York",
  "zip_code" : "10007",
  "fuel_oil_usage_mmbtu" : "0"
}
, {
  "lot" : "21",
  "building_name" : "Manhattan Supreme Court",
  "borough_number" : "1",
  "building_address" : "60 Centre Street",
  "block" : "160",
  "borough" : "Manhattan",
  "state" : "New York",
  "zip_code" : "10007",
  "fuel_oil_usage_mmbtu" : "0"
}
, {
  "lot" : "31",
  "building_name" : "Manhattan Family Court",
  "borough_number" : "1",
  "building_address" : "60 Lafayette Street",
  "block" : "171",
  "borough" : "Manhattan",
  "state" : "New York",
  "zip_code" : "10013",
  "fuel_oil_usage_mmbtu" : "0"
}
, {
  "lot" : "1",
  "building_name" : "Central Storehouse",
  "borough_number" : "4",
  "building_address" : "66-26 Metropolitan Avenue",
  "block" : "3605",
  "borough" : "Queens",
  "state" : "New York",
  "zip_code" : "11379",
  "fuel_oil_usage_mmbtu" : "3680.3220000000001"
}
, {
  "lot" : "9",
  "building_name" : "Staten Island Criminal Court",
  "borough_number" : "5",
  "building_address" : "67 Targee Street",
  "block" : "542",
  "borough" : "Staten Island",
  "state" : "New York",
  "zip_code" : "10304",
  "fuel_oil_usage_mmbtu" : "0"
}
, {
  "lot" : "27",
  "building_name" : "Louis Lefkowitz Building",
  "borough_number" : "1",
  "building_address" : "80 Centre Street",
  "block" : "166",
  "borough" : "Manhattan",
  "state" : "New York",
  "zip_code" : "10013",
  "fuel_oil_usage_mmbtu" : "0"
}
, {
  "lot" : "1",
  "building_name" : "Bronx County Courthouse",
  "borough_number" : "2",
  "building_address" : "851 Grand Concourse",
  "block" : "2468",
  "borough" : "Bronx",
  "state" : "New York",
  "zip_code" : "10451",
  "fuel_oil_usage_mmbtu" : "36911.136000000006"
}
, {
  "lot" : "1",
  "building_name" : "Queens Supreme Court",
  "borough_number" : "4",
  "building_address" : "88-11 Sutphin Boulevard",
  "block" : "9691",
  "borough" : "Queens",
  "state" : "New York",
  "zip_code" : "11435",
  "fuel_oil_usage_mmbtu" : "3002.6040000000003"
}
, {
  "lot" : "1",
  "building_name" : "Queens Civil Court",
  "borough_number" : "4",
  "building_address" : "89-17 Sutphin Boulevard",
  "block" : "9680",
  "borough" : "Queens",
  "state" : "New York",
  "zip_code" : "11435",
  "fuel_oil_usage_mmbtu" : "1574.4420000000002"
}
, {
  "lot" : "65",
  "building_name" : "Staten Island Civil Court",
  "borough_number" : "5",
  "building_address" : "927 Castleton Avenue",
  "block" : "159",
  "borough" : "Staten Island",
  "state" : "New York",
  "zip_code" : "10310",
  "fuel_oil_usage_mmbtu" : "0"
}
, {
  "lot" : "1",
  "building_name" : "City Hall",
  "borough_number" : "1",
  "building_address" : "City Hall Park",
  "block" : "122",
  "borough" : "Manhattan",
  "state" : "New York",
  "zip_code" : "10007",
  "fuel_oil_usage_mmbtu" : "0"
}
 ]